{
"type": "FeatureCollection",
"name": "Opere lineari",
"crs": { "type": "name", "properties": { "name": "urn:ogc:def:crs:OGC:1.3:CRS84" } },
"features": [
{ "type": "Feature", "properties": { "id": 3, "Nome": "Galleria in pressione", "Lunghezza": 1579, "Descrizione": null }, "geometry": { "type": "MultiLineString", "coordinates": [ [ [ 7.235241018092531, 44.676303553769401 ], [ 7.216366882189964, 44.671766455949694 ] ] ] } },
{ "type": "Feature", "properties": { "id": 1, "Nome": "Canale di adduzione", "Lunghezza": 10023, "Descrizione": null }, "geometry": { "type": "MultiLineString", "coordinates": [ [ [ 7.170538204853212, 44.702104835589878 ], [ 7.170539940214667, 44.70209562291965 ], [ 7.170454251699893, 44.701134944863156 ], [ 7.170597007806918, 44.700764672033472 ], [ 7.170832769450068, 44.700436131593555 ], [ 7.170882503173814, 44.70029743312174 ], [ 7.171016051659302, 44.70001974234544 ], [ 7.170832882675083, 44.699891635267448 ], [ 7.166151550748598, 44.696685931624934 ], [ 7.165664470007547, 44.696616348635921 ], [ 7.165354006758178, 44.696568227349204 ], [ 7.164871148715393, 44.69654992895331 ], [ 7.164571943800713, 44.696586336275125 ], [ 7.164414999638803, 44.696611299035972 ], [ 7.164378171140791, 44.696593682033352 ], [ 7.16431519421918, 44.696517954561578 ], [ 7.164308196299001, 44.696497437434004 ], [ 7.164488725950141, 44.696267339739052 ], [ 7.164691259108308, 44.696114019132743 ], [ 7.165098188839534, 44.695899724996877 ], [ 7.165444427118164, 44.695728836982092 ], [ 7.16576147630909, 44.695568262152456 ], [ 7.166201260949745, 44.695350840503323 ], [ 7.166397366803388, 44.694885411720314 ], [ 7.166481787801124, 44.694692670147219 ], [ 7.166667503639456, 44.694469205572794 ], [ 7.167284441945173, 44.694287975590335 ], [ 7.167858078807964, 44.694238343628029 ], [ 7.16873846857188, 44.694037784800493 ], [ 7.16916518874467, 44.693841708490993 ], [ 7.169527083587005, 44.693696546627649 ], [ 7.16980240860488, 44.693463730375925 ], [ 7.170133555555871, 44.693334738601926 ], [ 7.170418167966673, 44.693155985654187 ], [ 7.171204059021402, 44.692835061505015 ], [ 7.172167182913581, 44.692316970872888 ], [ 7.173693420676017, 44.692118832262494 ], [ 7.173769103184987, 44.692072008660375 ], [ 7.173984194348103, 44.691896546020175 ], [ 7.174177374407595, 44.6915874130896 ], [ 7.174563417794626, 44.691328907695443 ], [ 7.174903384129455, 44.691005945542962 ], [ 7.175075379875629, 44.690917330568126 ], [ 7.175214212204413, 44.690801131787438 ], [ 7.175308723578196, 44.69065166050958 ], [ 7.175521690996537, 44.690587748852039 ], [ 7.17565556010337, 44.690334704710111 ], [ 7.175809771070323, 44.689982065207346 ], [ 7.176048877990464, 44.689867944763471 ], [ 7.176176685266569, 44.689624967822773 ], [ 7.176213505584247, 44.689294223462348 ], [ 7.176162852990966, 44.688949326597168 ], [ 7.176254427443602, 44.688855701233706 ], [ 7.176478380492727, 44.688747525268923 ], [ 7.177103058583633, 44.688495362932244 ], [ 7.177176827809769, 44.688385678032454 ], [ 7.177302920632092, 44.688221041696011 ], [ 7.177244486309038, 44.687805935908024 ], [ 7.177244010970094, 44.687470668825817 ], [ 7.17732189489028, 44.687019469127023 ], [ 7.17725094419204, 44.686548815817588 ], [ 7.176977170018946, 44.685255177371367 ], [ 7.177001198195032, 44.684873431797278 ], [ 7.177027507849037, 44.684697276908118 ], [ 7.184168620814822, 44.672381570472929 ], [ 7.184198129113359, 44.67234530467038 ], [ 7.184411913852063, 44.672149891413163 ], [ 7.184505402816075, 44.67206383086598 ], [ 7.184630929818605, 44.67194473807244 ], [ 7.184904041947175, 44.671716335540331 ], [ 7.184930766094762, 44.67168053718332 ], [ 7.185545015212481, 44.669991574480655 ], [ 7.185540151601854, 44.669833792433941 ], [ 7.185366721916236, 44.669679580703587 ], [ 7.185165651853501, 44.669486697889276 ], [ 7.184767876473471, 44.669225252820709 ], [ 7.18468029621677, 44.669137409219772 ], [ 7.184458714480935, 44.668930660151275 ], [ 7.184279524770002, 44.668763121185648 ], [ 7.184164290726896, 44.66865909286966 ], [ 7.184045262423328, 44.668511626080061 ], [ 7.183943921273027, 44.668391643660236 ], [ 7.183889212119873, 44.668329014903108 ], [ 7.183867121196854, 44.668294108141524 ], [ 7.183849241185725, 44.668256327477557 ], [ 7.183857677619634, 44.668217127381958 ], [ 7.183966352989822, 44.66818107954915 ], [ 7.18421924775947, 44.668192177983769 ], [ 7.184649236688037, 44.668223834317729 ], [ 7.184963794759867, 44.668246480714451 ], [ 7.185285023658732, 44.668269967495 ], [ 7.185606905324709, 44.668289052421891 ], [ 7.186063758680719, 44.668296982286961 ], [ 7.186231533615567, 44.668308034868197 ], [ 7.186396039664643, 44.668307472233423 ], [ 7.186478826561731, 44.668213208601429 ], [ 7.186523168038269, 44.668129362563164 ], [ 7.186543036524493, 44.668020865512752 ], [ 7.186528750872553, 44.667917340120823 ], [ 7.186466240972871, 44.667757907187422 ], [ 7.186442627828388, 44.667705699058459 ], [ 7.186428768173768, 44.667555493909717 ], [ 7.186398368072896, 44.667324519359276 ], [ 7.186382394383775, 44.667126491274672 ], [ 7.18633858066545, 44.666978751159292 ], [ 7.186286824542236, 44.6668709543776 ], [ 7.18621336470613, 44.666748843584308 ], [ 7.186098266790068, 44.666523007805829 ], [ 7.186016115517468, 44.666357218235504 ], [ 7.186005212391982, 44.666226254383318 ], [ 7.186008644267989, 44.666095288402431 ], [ 7.186065901212762, 44.666026719742568 ], [ 7.186277963736591, 44.665978730577258 ], [ 7.186497829923801, 44.665919501986494 ], [ 7.187036957124227, 44.665793638916327 ], [ 7.187369366485923, 44.665722453888428 ], [ 7.187546619572073, 44.665621601751745 ], [ 7.187646827221197, 44.665480559647335 ], [ 7.187627175871668, 44.665317763898933 ], [ 7.187677785663593, 44.665148363646409 ], [ 7.187740566619424, 44.665051208206954 ], [ 7.187966742846051, 44.664818424586727 ], [ 7.187970853356213, 44.664686517672813 ], [ 7.187934060346033, 44.664610941188712 ], [ 7.187810327082603, 44.664498694162447 ], [ 7.1877300931864, 44.664395592522993 ], [ 7.187656049215151, 44.664292221473097 ], [ 7.187591381816405, 44.664177235685962 ], [ 7.187539911758551, 44.664028159291675 ], [ 7.187488297638135, 44.663815708565366 ], [ 7.187494536663471, 44.663698172248878 ], [ 7.187582051658728, 44.663600674309116 ], [ 7.18769136058787, 44.663531093038465 ], [ 7.187871797615434, 44.663460067351679 ], [ 7.187969366868457, 44.663420075933736 ], [ 7.188276860978386, 44.66331320218282 ], [ 7.18859521722256, 44.663196574450993 ], [ 7.188677200415389, 44.663164421971693 ], [ 7.188752576229458, 44.663089155383794 ], [ 7.188794359582988, 44.662917140457253 ], [ 7.188800286957813, 44.662814204348166 ], [ 7.188875762657235, 44.662722763791095 ], [ 7.189030169501796, 44.662575185211431 ], [ 7.189138203583812, 44.662532460630068 ], [ 7.189308487853254, 44.662489577641502 ], [ 7.189516411856459, 44.662428910747998 ], [ 7.189677061843692, 44.662298383110141 ], [ 7.189621892558676, 44.661952689574981 ], [ 7.189726206160752, 44.661679370836623 ], [ 7.189795992302483, 44.661522404746812 ], [ 7.189999953834922, 44.661456527586765 ], [ 7.19016595617861, 44.661451806934608 ], [ 7.190410693426701, 44.661499064260667 ], [ 7.19051393217792, 44.661458792901122 ], [ 7.190565365183287, 44.661295653687461 ], [ 7.190623958413834, 44.66116418759421 ], [ 7.190660475721759, 44.661053067507382 ], [ 7.190725248378643, 44.660924695014231 ], [ 7.190797776873697, 44.660778800069913 ], [ 7.190841453257361, 44.660666268076177 ], [ 7.190876731423722, 44.660525664575665 ], [ 7.190926102994543, 44.660313870450906 ], [ 7.190959652187439, 44.660178115904671 ], [ 7.191002984905782, 44.660076606714725 ], [ 7.191069575976083, 44.659989067609239 ], [ 7.191131612982432, 44.659882340553388 ], [ 7.191147430207773, 44.659406902829893 ], [ 7.191212055739218, 44.659084429200405 ], [ 7.191323768305708, 44.658661727133378 ], [ 7.191344917036269, 44.658551206032833 ], [ 7.191443111459712, 44.658220139435684 ], [ 7.191441992030982, 44.658132866098391 ], [ 7.191418747035068, 44.658038542624254 ], [ 7.191375293855837, 44.657973526960347 ], [ 7.191356525424415, 44.657946911495074 ], [ 7.191236497336001, 44.657824923456303 ], [ 7.191165972072796, 44.657684572281092 ], [ 7.191115381928972, 44.6575889271625 ], [ 7.191110252328651, 44.657455770752691 ], [ 7.19115044510314, 44.657396174580448 ], [ 7.191271457249004, 44.657339953987595 ], [ 7.191443212624693, 44.657315471620826 ], [ 7.191590282274022, 44.657322947751602 ], [ 7.191787370265824, 44.657411355048389 ], [ 7.192037243272095, 44.657524860206365 ], [ 7.192320847759639, 44.657746241263638 ], [ 7.192701717393834, 44.657986806638533 ], [ 7.19282561701094, 44.658076994456017 ], [ 7.192926249496204, 44.658186664862761 ], [ 7.193006427429036, 44.658291600118268 ], [ 7.193113829516692, 44.658349176759025 ], [ 7.193207086764674, 44.65833153684401 ], [ 7.19348348682709, 44.658142706058797 ], [ 7.19361250608407, 44.658037270435436 ], [ 7.193668350988514, 44.658005283008471 ], [ 7.193701014311955, 44.657986594263775 ], [ 7.208941194144678, 44.65732218287102 ], [ 7.208956312622052, 44.657301737175779 ], [ 7.208993824581222, 44.657159022938515 ], [ 7.209020707991659, 44.656991765729927 ], [ 7.209082136156993, 44.65687897356397 ], [ 7.209123312200568, 44.65684131784618 ], [ 7.209191764466067, 44.656838999116765 ], [ 7.211928754005526, 44.657426544825576 ], [ 7.211966030539411, 44.657430904052752 ], [ 7.212904856245339, 44.659391332493378 ], [ 7.214061644007104, 44.661772440230997 ], [ 7.214076035666196, 44.66180091959729 ], [ 7.2152692383517, 44.663104314867638 ], [ 7.215267969420187, 44.663145660718762 ], [ 7.215281574645177, 44.663444297267908 ], [ 7.215288196770598, 44.663498323907355 ], [ 7.218158555874262, 44.666429889462748 ], [ 7.218177670049465, 44.666447915909202 ], [ 7.218171255802739, 44.666471453329393 ], [ 7.216375958300389, 44.671737596745992 ] ] ] } },
{ "type": "Feature", "properties": { "id": 2, "Nome": "Canale in disuso", "Lunghezza": 1566, "Descrizione": null }, "geometry": { "type": "MultiLineString", "coordinates": [ [ [ 7.209004599169601, 44.657348714820593 ], [ 7.209161200960231, 44.657391831009399 ], [ 7.209452356432871, 44.657796909597906 ], [ 7.209550144132446, 44.658099687382858 ], [ 7.209521086244569, 44.658286458819873 ], [ 7.209740236501164, 44.65855838766722 ], [ 7.209740578379561, 44.659009257368403 ], [ 7.2101872279004, 44.659535332503978 ], [ 7.210262667678444, 44.659757275708373 ], [ 7.210511504225619, 44.659927123719676 ], [ 7.210490694793116, 44.660203705133419 ], [ 7.21064492139477, 44.660552259330515 ], [ 7.210429043195405, 44.660932610012722 ], [ 7.210581069373358, 44.661217665769549 ], [ 7.210827042107549, 44.661496158349415 ], [ 7.211031246040394, 44.661706014224983 ], [ 7.211352201354472, 44.661890481450484 ], [ 7.211511974971637, 44.662069619406694 ], [ 7.211611972163285, 44.66291487543829 ], [ 7.211803003794159, 44.663367942388376 ], [ 7.212368524281126, 44.664200347696116 ], [ 7.21280444343259, 44.664566156919541 ], [ 7.213204958568564, 44.665071164432987 ], [ 7.21347546893089, 44.6652544422303 ], [ 7.2139282531513, 44.665787290670806 ], [ 7.214029943938532, 44.666012134450831 ], [ 7.214097549417738, 44.666353267680158 ], [ 7.214752891037993, 44.666890796010541 ], [ 7.214922327587441, 44.667206645434092 ], [ 7.214884854373606, 44.667457128315363 ], [ 7.214808608050193, 44.667833618010761 ], [ 7.21484915508693, 44.668453083627291 ], [ 7.214424166102684, 44.670060714433788 ] ] ] } },
{ "type": "Feature", "properties": { "id": 4, "Nome": "Condotte forzate", "Lunghezza": 1106, "Descrizione": null }, "geometry": { "type": "MultiLineString", "coordinates": [ [ [ 7.235323777956362, 44.67660196117145 ], [ 7.240328378915001, 44.685892705741878 ] ] ] } },
{ "type": "Feature", "properties": { "id": 5, "Nome": "Linea elettrica", "Lunghezza": 7856, "Descrizione": null }, "geometry": { "type": "MultiLineString", "coordinates": [ [ [ 7.241519877986734, 44.685892281093679 ], [ 7.244130435738384, 44.685847490675492 ], [ 7.247061879445122, 44.685802008467626 ], [ 7.249819519686774, 44.685473071290737 ], [ 7.252768697263265, 44.6850959162742 ], [ 7.255500450068376, 44.684774523729921 ], [ 7.258370320310215, 44.684410060708849 ], [ 7.26155505771411, 44.684019295112854 ], [ 7.264343494583549, 44.683672322805172 ], [ 7.267148356100336, 44.683147923192443 ], [ 7.269276254585977, 44.682783250051131 ], [ 7.271502324803144, 44.682369853019438 ], [ 7.273834885746361, 44.681945307503092 ], [ 7.277036247375453, 44.681658250378305 ], [ 7.279993794824031, 44.680445285962506 ], [ 7.28310368201888, 44.677313311010835 ], [ 7.285168241203904, 44.675705312304338 ], [ 7.286969541077847, 44.674263703705947 ], [ 7.289313573329999, 44.672772992958549 ], [ 7.291117462968588, 44.671650981444635 ], [ 7.292956182969325, 44.670481625170709 ], [ 7.29468477188458, 44.669396495734361 ], [ 7.296702157397665, 44.668119806313605 ], [ 7.298800396937443, 44.66680761193625 ], [ 7.300753724987739, 44.665528217341233 ], [ 7.302950096217196, 44.66418605557817 ], [ 7.304706468547002, 44.663035633140829 ], [ 7.306711430181473, 44.661728130479851 ], [ 7.308441047216002, 44.660685580315103 ], [ 7.310277122138698, 44.659545242863167 ], [ 7.312392561745537, 44.658218952669955 ], [ 7.314567016089838, 44.656815456521215 ], [ 7.31636912758654, 44.655695361307714 ], [ 7.318442075648407, 44.654404211863351 ], [ 7.320970780513153, 44.652825553468709 ], [ 7.322127446666528, 44.651517179536221 ], [ 7.322980675659014, 44.651375774132461 ] ] ] } }
]
}
