{
"type": "FeatureCollection",
"name": "Opere puntuali",
"crs": { "type": "name", "properties": { "name": "urn:ogc:def:crs:OGC:1.3:CRS84" } },
"features": [
{ "type": "Feature", "properties": { "Nome": "Opera sul t. Toussiet", "Text": null, "distance": null, "id": 2 }, "geometry": { "type": "MultiPoint", "coordinates": [ [ 7.170538204853212, 44.702104835589878 ] ] } },
{ "type": "Feature", "properties": { "Nome": "Opera sul f. Po", "Text": null, "distance": 907.0, "id": 3 }, "geometry": { "type": "MultiPoint", "coordinates": [ [ 7.164313950311324, 44.696514307562438 ] ] } },
{ "type": "Feature", "properties": { "Nome": "Opera sul t. Giulian", "Text": null, "distance": 4253.0, "id": 4 }, "geometry": { "type": "MultiPoint", "coordinates": [ [ 7.18408989029981, 44.672526985983545 ] ] } },
{ "type": "Feature", "properties": { "Nome": "Opera sul t. Daina", "Text": null, "distance": 4801.0, "id": 5 }, "geometry": { "type": "MultiPoint", "coordinates": [ [ 7.183854840960751, 44.668268159870372 ] ] } },
{ "type": "Feature", "properties": { "Nome": "Opera sul t. Molino", "Text": null, "distance": 5259.0, "id": 6 }, "geometry": { "type": "MultiPoint", "coordinates": [ [ 7.186007414062974, 44.666142235140136 ] ] } },
{ "type": "Feature", "properties": { "Nome": "Opera sul t. Ronchetto", "Text": null, "distance": 5981.0, "id": 7 }, "geometry": { "type": "MultiPoint", "coordinates": [ [ 7.189955354874042, 44.661470932567397 ] ] } },
{ "type": "Feature", "properties": { "Nome": "Opera sul t. Lenta", "Text": null, "distance": 6528.0, "id": 8 }, "geometry": { "type": "MultiPoint", "coordinates": [ [ 7.191536216406012, 44.657320199392352 ] ] } },
{ "type": "Feature", "properties": { "Nome": "Opera sul t. Cugnet", "Text": null, "distance": 6805.0, "id": 9 }, "geometry": { "type": "MultiPoint", "coordinates": [ [ 7.194229810182232, 44.657963575238057 ] ] } },
{ "type": "Feature", "properties": { "Nome": "Opera sul t. Frassaia", "Text": null, "distance": 8083.0, "id": 10 }, "geometry": { "type": "MultiPoint", "coordinates": [ [ 7.209766217776398, 44.656962322594076 ] ] } },
{ "type": "Feature", "properties": { "Nome": "Opera sul t. Combe", "Text": null, "distance": 0.0, "id": 1 }, "geometry": { "type": "MultiPoint", "coordinates": [ [ 7.178788681687879, 44.701348017484122 ] ] } },
{ "type": "Feature", "properties": { "Nome": "Vasca di Carico", "Text": null, "distance": 10050.0, "id": 11 }, "geometry": { "type": "MultiPoint", "coordinates": [ [ 7.216366882189964, 44.671766455949694 ] ] } },
{ "type": "Feature", "properties": { "Nome": "Pozzo piezometrico", "Text": null, "distance": null, "id": 12 }, "geometry": { "type": "MultiPoint", "coordinates": [ [ 7.235323777956362, 44.67660196117145 ] ] } },
{ "type": "Feature", "properties": { "Nome": "Centrale di produzione", "Text": null, "distance": null, "id": 13 }, "geometry": { "type": "MultiPoint", "coordinates": [ [ 7.240328378915001, 44.685892705741878 ] ] } },
{ "type": "Feature", "properties": { "Nome": "Sottostazione", "Text": null, "distance": null, "id": 14 }, "geometry": { "type": "MultiPoint", "coordinates": [ [ 7.322980675659014, 44.651375774132461 ] ] } }
]
}
