{
"type": "FeatureCollection",
"name": "Percorso ciclabile",
"crs": { "type": "name", "properties": { "name": "urn:ogc:def:crs:OGC:1.3:CRS84" } },
"features": [
{ "type": "Feature", "properties": { "Name": "Indicazioni stradali da centrale di calcinere a Strada Senza Nome, 12034 Paesana CN, Italia", "description": null, "timestamp": null, "begin": null, "end": null, "altitudeMode": null, "tessellate": 1, "extrude": 0, "visibility": -1, "drawOrder": null, "icon": null }, "geometry": { "type": "LineString", "coordinates": [ [ 7.23279, 44.68759, 0.0 ], [ 7.23253, 44.68766, 0.0 ], [ 7.23189, 44.68769, 0.0 ], [ 7.2315, 44.68766, 0.0 ], [ 7.23047, 44.68746, 0.0 ], [ 7.23045, 44.68743, 0.0 ], [ 7.23044, 44.68739, 0.0 ], [ 7.23044, 44.68734, 0.0 ], [ 7.23054, 44.68724, 0.0 ], [ 7.23059, 44.68717, 0.0 ], [ 7.23057, 44.68713, 0.0 ], [ 7.23049, 44.68706, 0.0 ], [ 7.23045, 44.68699, 0.0 ], [ 7.23043, 44.68688, 0.0 ], [ 7.23034, 44.68688, 0.0 ], [ 7.22987, 44.68694, 0.0 ], [ 7.22958, 44.68694, 0.0 ], [ 7.22947, 44.68692, 0.0 ], [ 7.22937, 44.68688, 0.0 ], [ 7.22927, 44.68682, 0.0 ], [ 7.22919, 44.68675, 0.0 ], [ 7.22918, 44.68675, 0.0 ], [ 7.22906, 44.68666, 0.0 ], [ 7.22796, 44.68668, 0.0 ], [ 7.22741, 44.68661, 0.0 ], [ 7.22722, 44.68656, 0.0 ], [ 7.22704, 44.68649, 0.0 ], [ 7.22703, 44.68648, 0.0 ], [ 7.22681, 44.68636, 0.0 ], [ 7.22595, 44.68559, 0.0 ], [ 7.22575, 44.68535, 0.0 ], [ 7.22505, 44.68416, 0.0 ], [ 7.22494, 44.6841, 0.0 ], [ 7.22485, 44.68408, 0.0 ], [ 7.22482, 44.68409, 0.0 ], [ 7.22477, 44.68409, 0.0 ], [ 7.22464, 44.68411, 0.0 ], [ 7.22461, 44.68413, 0.0 ], [ 7.22334, 44.68455, 0.0 ], [ 7.22325, 44.68457, 0.0 ], [ 7.22323, 44.68458, 0.0 ], [ 7.22315, 44.68458, 0.0 ], [ 7.22195, 44.6847, 0.0 ], [ 7.22173, 44.68469, 0.0 ], [ 7.22117, 44.68454, 0.0 ], [ 7.22069, 44.68436, 0.0 ], [ 7.22035, 44.6842, 0.0 ], [ 7.21994, 44.68393, 0.0 ], [ 7.21957, 44.68375, 0.0 ], [ 7.21956, 44.68374, 0.0 ], [ 7.21937, 44.6837, 0.0 ], [ 7.21907, 44.68367, 0.0 ], [ 7.21887, 44.68363, 0.0 ], [ 7.21793, 44.68354, 0.0 ], [ 7.21782, 44.68354, 0.0 ], [ 7.2175, 44.68359, 0.0 ], [ 7.21688, 44.68373, 0.0 ], [ 7.21686, 44.68374, 0.0 ], [ 7.21662, 44.68379, 0.0 ], [ 7.21539, 44.68397, 0.0 ], [ 7.21441, 44.68404, 0.0 ], [ 7.21438, 44.68405, 0.0 ], [ 7.21214, 44.68416, 0.0 ], [ 7.21086, 44.6843, 0.0 ], [ 7.21044, 44.6844, 0.0 ], [ 7.21016, 44.6845, 0.0 ], [ 7.21015, 44.68451, 0.0 ], [ 7.20984, 44.68462, 0.0 ], [ 7.20973, 44.68468, 0.0 ], [ 7.20972, 44.68469, 0.0 ], [ 7.20958, 44.68477, 0.0 ], [ 7.20938, 44.68495, 0.0 ], [ 7.20927, 44.68508, 0.0 ], [ 7.20911, 44.68532, 0.0 ], [ 7.20902, 44.68542, 0.0 ], [ 7.20866, 44.68574, 0.0 ], [ 7.20853, 44.68583, 0.0 ], [ 7.20794, 44.68617, 0.0 ], [ 7.20793, 44.68617, 0.0 ], [ 7.20768, 44.68632, 0.0 ], [ 7.20742, 44.68591, 0.0 ], [ 7.20737, 44.68581, 0.0 ], [ 7.20737, 44.68577, 0.0 ], [ 7.20739, 44.6857, 0.0 ], [ 7.20742, 44.68565, 0.0 ], [ 7.20777, 44.68534, 0.0 ], [ 7.20802, 44.68504, 0.0 ], [ 7.20806, 44.68493, 0.0 ], [ 7.20806, 44.68483, 0.0 ], [ 7.20808, 44.68477, 0.0 ], [ 7.20812, 44.68473, 0.0 ], [ 7.20813, 44.68473, 0.0 ], [ 7.20815, 44.68471, 0.0 ], [ 7.20821, 44.68467, 0.0 ], [ 7.20827, 44.68458, 0.0 ], [ 7.20827, 44.68456, 0.0 ], [ 7.20829, 44.68449, 0.0 ], [ 7.2083, 44.68416, 0.0 ], [ 7.20832, 44.6841, 0.0 ], [ 7.20835, 44.68406, 0.0 ], [ 7.20849, 44.68399, 0.0 ], [ 7.2085, 44.68398, 0.0 ], [ 7.20873, 44.68387, 0.0 ], [ 7.20885, 44.68372, 0.0 ], [ 7.20887, 44.68367, 0.0 ], [ 7.2089, 44.68363, 0.0 ], [ 7.20894, 44.68355, 0.0 ], [ 7.209, 44.68349, 0.0 ], [ 7.20908, 44.68344, 0.0 ], [ 7.20924, 44.68337, 0.0 ], [ 7.20928, 44.68332, 0.0 ], [ 7.20929, 44.68332, 0.0 ], [ 7.20938, 44.68319, 0.0 ], [ 7.20942, 44.68318, 0.0 ], [ 7.20951, 44.68314, 0.0 ], [ 7.20968, 44.68311, 0.0 ], [ 7.20991, 44.68311, 0.0 ], [ 7.21013, 44.68308, 0.0 ], [ 7.21015, 44.68307, 0.0 ], [ 7.21016, 44.68305, 0.0 ], [ 7.21016, 44.68302, 0.0 ], [ 7.21017, 44.683, 0.0 ], [ 7.21016, 44.683, 0.0 ], [ 7.21016, 44.68297, 0.0 ], [ 7.20956, 44.68227, 0.0 ], [ 7.20944, 44.68207, 0.0 ], [ 7.20944, 44.68206, 0.0 ], [ 7.20941, 44.68198, 0.0 ], [ 7.20941, 44.68188, 0.0 ], [ 7.20942, 44.68184, 0.0 ], [ 7.20947, 44.68176, 0.0 ], [ 7.20963, 44.6816, 0.0 ], [ 7.20964, 44.68156, 0.0 ], [ 7.2097, 44.68144, 0.0 ], [ 7.2097, 44.6814, 0.0 ], [ 7.20967, 44.68136, 0.0 ], [ 7.20962, 44.68132, 0.0 ], [ 7.20951, 44.68127, 0.0 ], [ 7.20906, 44.68112, 0.0 ], [ 7.20905, 44.68112, 0.0 ], [ 7.20902, 44.6811, 0.0 ], [ 7.20897, 44.68108, 0.0 ], [ 7.20894, 44.68106, 0.0 ], [ 7.20891, 44.68103, 0.0 ], [ 7.20885, 44.68091, 0.0 ], [ 7.20885, 44.68082, 0.0 ], [ 7.20891, 44.68055, 0.0 ], [ 7.2089, 44.68053, 0.0 ], [ 7.2089, 44.68052, 0.0 ], [ 7.20883, 44.68044, 0.0 ], [ 7.20832, 44.68003, 0.0 ], [ 7.20816, 44.67995, 0.0 ], [ 7.20795, 44.67987, 0.0 ], [ 7.20793, 44.67987, 0.0 ], [ 7.20769, 44.67981, 0.0 ], [ 7.20746, 44.6798, 0.0 ], [ 7.20744, 44.67981, 0.0 ], [ 7.20743, 44.67981, 0.0 ], [ 7.20741, 44.67982, 0.0 ], [ 7.2074, 44.67983, 0.0 ], [ 7.2074, 44.67984, 0.0 ], [ 7.20743, 44.67987, 0.0 ], [ 7.20751, 44.67989, 0.0 ], [ 7.20756, 44.67989, 0.0 ], [ 7.20771, 44.67992, 0.0 ], [ 7.20775, 44.67992, 0.0 ], [ 7.2078, 44.67995, 0.0 ], [ 7.20781, 44.67995, 0.0 ], [ 7.20798, 44.68007, 0.0 ], [ 7.20807, 44.68016, 0.0 ], [ 7.20814, 44.68021, 0.0 ], [ 7.20836, 44.68049, 0.0 ], [ 7.2084, 44.68057, 0.0 ], [ 7.20839, 44.68061, 0.0 ], [ 7.20839, 44.68076, 0.0 ], [ 7.20838, 44.68081, 0.0 ], [ 7.20838, 44.68093, 0.0 ], [ 7.20841, 44.68104, 0.0 ], [ 7.20841, 44.68106, 0.0 ], [ 7.20843, 44.68112, 0.0 ], [ 7.20846, 44.68116, 0.0 ], [ 7.20848, 44.68121, 0.0 ], [ 7.20864, 44.68138, 0.0 ], [ 7.20885, 44.68153, 0.0 ], [ 7.20888, 44.68156, 0.0 ], [ 7.20892, 44.68163, 0.0 ], [ 7.20892, 44.68165, 0.0 ], [ 7.2089, 44.68167, 0.0 ], [ 7.20888, 44.68168, 0.0 ], [ 7.20882, 44.68168, 0.0 ], [ 7.20875, 44.68163, 0.0 ], [ 7.20872, 44.68159, 0.0 ], [ 7.20862, 44.68151, 0.0 ], [ 7.20843, 44.68132, 0.0 ], [ 7.20822, 44.68105, 0.0 ], [ 7.20818, 44.6809, 0.0 ], [ 7.20818, 44.68083, 0.0 ], [ 7.20815, 44.68074, 0.0 ], [ 7.20811, 44.68069, 0.0 ], [ 7.20805, 44.68064, 0.0 ], [ 7.20769, 44.6804, 0.0 ], [ 7.20756, 44.68033, 0.0 ], [ 7.20748, 44.6803, 0.0 ], [ 7.20747, 44.68029, 0.0 ], [ 7.2073, 44.68026, 0.0 ], [ 7.20723, 44.68026, 0.0 ], [ 7.20705, 44.68029, 0.0 ], [ 7.20694, 44.68033, 0.0 ], [ 7.20682, 44.68035, 0.0 ], [ 7.20675, 44.68035, 0.0 ], [ 7.20671, 44.68036, 0.0 ], [ 7.2065, 44.68035, 0.0 ], [ 7.20625, 44.68038, 0.0 ], [ 7.20623, 44.68039, 0.0 ], [ 7.20595, 44.68042, 0.0 ], [ 7.20584, 44.68042, 0.0 ], [ 7.20576, 44.6804, 0.0 ], [ 7.20559, 44.68031, 0.0 ], [ 7.20556, 44.68028, 0.0 ], [ 7.20544, 44.68023, 0.0 ], [ 7.20532, 44.68021, 0.0 ], [ 7.20518, 44.68017, 0.0 ], [ 7.20511, 44.68013, 0.0 ], [ 7.2051, 44.68013, 0.0 ], [ 7.20478, 44.67996, 0.0 ], [ 7.2047, 44.67994, 0.0 ], [ 7.20469, 44.67993, 0.0 ], [ 7.20456, 44.6799, 0.0 ], [ 7.2044, 44.67984, 0.0 ], [ 7.20433, 44.67983, 0.0 ], [ 7.20408, 44.67984, 0.0 ], [ 7.20399, 44.67983, 0.0 ], [ 7.20379, 44.67976, 0.0 ], [ 7.20227, 44.679, 0.0 ], [ 7.20209, 44.67896, 0.0 ], [ 7.20106, 44.67885, 0.0 ], [ 7.20093, 44.67881, 0.0 ], [ 7.20092, 44.6788, 0.0 ], [ 7.20082, 44.67875, 0.0 ], [ 7.20074, 44.67868, 0.0 ], [ 7.20068, 44.6786, 0.0 ], [ 7.20065, 44.67852, 0.0 ], [ 7.20061, 44.67846, 0.0 ], [ 7.20056, 44.67843, 0.0 ], [ 7.20029, 44.67835, 0.0 ], [ 7.20016, 44.67827, 0.0 ], [ 7.19996, 44.67811, 0.0 ], [ 7.19988, 44.67803, 0.0 ], [ 7.19982, 44.67795, 0.0 ], [ 7.19977, 44.67785, 0.0 ], [ 7.19975, 44.67775, 0.0 ], [ 7.19972, 44.67767, 0.0 ], [ 7.19969, 44.67765, 0.0 ], [ 7.19966, 44.67762, 0.0 ], [ 7.1995, 44.67753, 0.0 ], [ 7.19937, 44.6775, 0.0 ], [ 7.19918, 44.67748, 0.0 ], [ 7.19898, 44.67748, 0.0 ], [ 7.1976, 44.67762, 0.0 ], [ 7.19742, 44.67762, 0.0 ], [ 7.19735, 44.67761, 0.0 ], [ 7.19725, 44.67761, 0.0 ], [ 7.19723, 44.6776, 0.0 ], [ 7.19703, 44.67755, 0.0 ], [ 7.19698, 44.67751, 0.0 ], [ 7.19676, 44.67738, 0.0 ], [ 7.19669, 44.67731, 0.0 ], [ 7.19661, 44.67726, 0.0 ], [ 7.19622, 44.67709, 0.0 ], [ 7.19605, 44.67699, 0.0 ], [ 7.19596, 44.67695, 0.0 ], [ 7.19588, 44.67694, 0.0 ], [ 7.19586, 44.67693, 0.0 ], [ 7.19574, 44.67693, 0.0 ], [ 7.19543, 44.67698, 0.0 ], [ 7.19526, 44.67698, 0.0 ], [ 7.19518, 44.67696, 0.0 ], [ 7.19492, 44.67683, 0.0 ], [ 7.19466, 44.67667, 0.0 ], [ 7.19412, 44.67655, 0.0 ], [ 7.19408, 44.67653, 0.0 ], [ 7.19404, 44.67652, 0.0 ], [ 7.19377, 44.67633, 0.0 ], [ 7.19369, 44.6763, 0.0 ], [ 7.1936, 44.67625, 0.0 ], [ 7.19358, 44.67622, 0.0 ], [ 7.19357, 44.67619, 0.0 ], [ 7.19356, 44.67618, 0.0 ], [ 7.19356, 44.67612, 0.0 ], [ 7.19358, 44.67605, 0.0 ], [ 7.19361, 44.67599, 0.0 ], [ 7.19361, 44.67598, 0.0 ], [ 7.19379, 44.67566, 0.0 ], [ 7.19389, 44.67554, 0.0 ], [ 7.19392, 44.67549, 0.0 ], [ 7.19393, 44.67543, 0.0 ], [ 7.19391, 44.67533, 0.0 ], [ 7.1939, 44.67531, 0.0 ], [ 7.19376, 44.67516, 0.0 ], [ 7.19366, 44.675, 0.0 ], [ 7.19365, 44.67497, 0.0 ], [ 7.19364, 44.67486, 0.0 ], [ 7.19366, 44.67483, 0.0 ], [ 7.19366, 44.67482, 0.0 ], [ 7.1937, 44.67479, 0.0 ], [ 7.19385, 44.67463, 0.0 ], [ 7.19387, 44.67459, 0.0 ], [ 7.19389, 44.67448, 0.0 ], [ 7.19389, 44.67439, 0.0 ], [ 7.19384, 44.67426, 0.0 ], [ 7.19377, 44.67416, 0.0 ], [ 7.19369, 44.67411, 0.0 ], [ 7.19357, 44.67406, 0.0 ], [ 7.19341, 44.67402, 0.0 ], [ 7.19261, 44.67391, 0.0 ], [ 7.19237, 44.67386, 0.0 ], [ 7.19234, 44.67386, 0.0 ], [ 7.19222, 44.67383, 0.0 ], [ 7.19211, 44.67382, 0.0 ], [ 7.19141, 44.67383, 0.0 ], [ 7.19134, 44.67381, 0.0 ], [ 7.19132, 44.67381, 0.0 ], [ 7.19126, 44.67379, 0.0 ], [ 7.19095, 44.67359, 0.0 ], [ 7.19029, 44.67332, 0.0 ], [ 7.19028, 44.67332, 0.0 ], [ 7.19019, 44.67327, 0.0 ], [ 7.19017, 44.67325, 0.0 ], [ 7.19016, 44.67322, 0.0 ], [ 7.19016, 44.67318, 0.0 ], [ 7.19019, 44.67305, 0.0 ], [ 7.19022, 44.67301, 0.0 ], [ 7.19027, 44.6729, 0.0 ], [ 7.1904, 44.67268, 0.0 ], [ 7.19058, 44.67247, 0.0 ], [ 7.1907, 44.6724, 0.0 ], [ 7.1907, 44.67239, 0.0 ], [ 7.19109, 44.67216, 0.0 ], [ 7.19118, 44.67209, 0.0 ], [ 7.19128, 44.67195, 0.0 ], [ 7.1913, 44.67188, 0.0 ], [ 7.1913, 44.67184, 0.0 ], [ 7.19134, 44.6716, 0.0 ], [ 7.19134, 44.67144, 0.0 ], [ 7.19133, 44.67138, 0.0 ], [ 7.19131, 44.67133, 0.0 ], [ 7.19129, 44.67131, 0.0 ], [ 7.19131, 44.67126, 0.0 ], [ 7.19131, 44.67123, 0.0 ], [ 7.19123, 44.6711, 0.0 ], [ 7.19116, 44.67095, 0.0 ], [ 7.19109, 44.67084, 0.0 ], [ 7.19108, 44.6708, 0.0 ], [ 7.191, 44.67063, 0.0 ], [ 7.19094, 44.67053, 0.0 ], [ 7.1909, 44.67048, 0.0 ], [ 7.1909, 44.67047, 0.0 ], [ 7.19086, 44.67042, 0.0 ], [ 7.1908, 44.67037, 0.0 ], [ 7.19073, 44.67034, 0.0 ], [ 7.1907, 44.67032, 0.0 ], [ 7.19034, 44.67016, 0.0 ], [ 7.19031, 44.67014, 0.0 ], [ 7.19026, 44.67012, 0.0 ], [ 7.19023, 44.67009, 0.0 ], [ 7.19019, 44.67002, 0.0 ], [ 7.19018, 44.66999, 0.0 ], [ 7.19018, 44.66997, 0.0 ], [ 7.19021, 44.66988, 0.0 ], [ 7.19029, 44.66976, 0.0 ], [ 7.19043, 44.66946, 0.0 ], [ 7.19047, 44.66932, 0.0 ], [ 7.19047, 44.6693, 0.0 ], [ 7.19057, 44.66899, 0.0 ], [ 7.19065, 44.66858, 0.0 ], [ 7.19065, 44.66846, 0.0 ], [ 7.19064, 44.66844, 0.0 ], [ 7.19054, 44.66832, 0.0 ], [ 7.19052, 44.66827, 0.0 ], [ 7.19052, 44.66824, 0.0 ], [ 7.19058, 44.66816, 0.0 ], [ 7.19072, 44.66806, 0.0 ], [ 7.19079, 44.66799, 0.0 ], [ 7.19103, 44.66745, 0.0 ], [ 7.19104, 44.66745, 0.0 ], [ 7.1911, 44.66728, 0.0 ], [ 7.19112, 44.66725, 0.0 ], [ 7.19117, 44.66707, 0.0 ], [ 7.1912, 44.667, 0.0 ], [ 7.19131, 44.66685, 0.0 ], [ 7.19152, 44.66664, 0.0 ], [ 7.19193, 44.66631, 0.0 ], [ 7.19196, 44.66625, 0.0 ], [ 7.19199, 44.66622, 0.0 ], [ 7.1921, 44.666, 0.0 ], [ 7.19216, 44.66594, 0.0 ], [ 7.19222, 44.6659, 0.0 ], [ 7.19227, 44.66589, 0.0 ], [ 7.19239, 44.66589, 0.0 ], [ 7.19257, 44.66592, 0.0 ], [ 7.19268, 44.66592, 0.0 ], [ 7.19293, 44.66581, 0.0 ], [ 7.19295, 44.66581, 0.0 ], [ 7.19323, 44.66566, 0.0 ], [ 7.19333, 44.66564, 0.0 ], [ 7.19344, 44.66564, 0.0 ], [ 7.1936, 44.66562, 0.0 ], [ 7.19387, 44.66563, 0.0 ], [ 7.19391, 44.66564, 0.0 ], [ 7.19398, 44.66568, 0.0 ], [ 7.19405, 44.66575, 0.0 ], [ 7.19411, 44.66593, 0.0 ], [ 7.19413, 44.66629, 0.0 ], [ 7.19417, 44.66644, 0.0 ], [ 7.19424, 44.66656, 0.0 ], [ 7.19488, 44.66742, 0.0 ], [ 7.19489, 44.66742, 0.0 ], [ 7.19507, 44.66763, 0.0 ], [ 7.19545, 44.66801, 0.0 ], [ 7.19571, 44.66818, 0.0 ], [ 7.19609, 44.66836, 0.0 ], [ 7.19643, 44.66855, 0.0 ], [ 7.19678, 44.66869, 0.0 ], [ 7.19689, 44.66871, 0.0 ], [ 7.19691, 44.66872, 0.0 ], [ 7.19698, 44.66873, 0.0 ], [ 7.1971, 44.66873, 0.0 ], [ 7.1973, 44.66871, 0.0 ], [ 7.19757, 44.66863, 0.0 ], [ 7.19774, 44.66863, 0.0 ], [ 7.19783, 44.66865, 0.0 ], [ 7.19797, 44.6687, 0.0 ], [ 7.19869, 44.66931, 0.0 ], [ 7.19918, 44.66984, 0.0 ], [ 7.19941, 44.67001, 0.0 ], [ 7.19986, 44.67022, 0.0 ], [ 7.2002, 44.67032, 0.0 ], [ 7.2005, 44.67036, 0.0 ], [ 7.20059, 44.67039, 0.0 ], [ 7.20075, 44.67049, 0.0 ], [ 7.20087, 44.67061, 0.0 ], [ 7.2009, 44.67065, 0.0 ], [ 7.20105, 44.67094, 0.0 ], [ 7.20152, 44.67172, 0.0 ], [ 7.2016, 44.67188, 0.0 ], [ 7.20161, 44.67192, 0.0 ], [ 7.20163, 44.67194, 0.0 ], [ 7.20165, 44.67195, 0.0 ], [ 7.20173, 44.67195, 0.0 ], [ 7.20175, 44.67194, 0.0 ], [ 7.20176, 44.67194, 0.0 ], [ 7.20176, 44.67193, 0.0 ], [ 7.20177, 44.67191, 0.0 ], [ 7.20178, 44.67185, 0.0 ], [ 7.20178, 44.67179, 0.0 ], [ 7.20182, 44.67154, 0.0 ], [ 7.20182657490041, 44.671284232057843, 0.0 ], [ 7.20182, 44.67154, 0.0 ], [ 7.20178, 44.67179, 0.0 ], [ 7.20178, 44.67185, 0.0 ], [ 7.20177, 44.67191, 0.0 ], [ 7.20176, 44.67193, 0.0 ], [ 7.20176, 44.67194, 0.0 ], [ 7.20175, 44.67194, 0.0 ], [ 7.20173, 44.67195, 0.0 ], [ 7.20165, 44.67195, 0.0 ], [ 7.20163, 44.67194, 0.0 ], [ 7.20161, 44.67192, 0.0 ], [ 7.2016, 44.67188, 0.0 ], [ 7.20152, 44.67172, 0.0 ], [ 7.20105, 44.67094, 0.0 ], [ 7.2009, 44.67065, 0.0 ], [ 7.20087, 44.67061, 0.0 ], [ 7.20075, 44.67049, 0.0 ], [ 7.20059, 44.67039, 0.0 ], [ 7.2005, 44.67036, 0.0 ], [ 7.2002, 44.67032, 0.0 ], [ 7.19986, 44.67022, 0.0 ], [ 7.19941, 44.67001, 0.0 ], [ 7.19918, 44.66984, 0.0 ], [ 7.19869, 44.66931, 0.0 ], [ 7.19797, 44.6687, 0.0 ], [ 7.19783, 44.66865, 0.0 ], [ 7.19774, 44.66863, 0.0 ], [ 7.19757, 44.66863, 0.0 ], [ 7.1973, 44.66871, 0.0 ], [ 7.1971, 44.66873, 0.0 ], [ 7.19698, 44.66873, 0.0 ], [ 7.19691, 44.66872, 0.0 ], [ 7.19689, 44.66871, 0.0 ], [ 7.19678, 44.66869, 0.0 ], [ 7.19643, 44.66855, 0.0 ], [ 7.19609, 44.66836, 0.0 ], [ 7.19571, 44.66818, 0.0 ], [ 7.19545, 44.66801, 0.0 ], [ 7.19507, 44.66763, 0.0 ], [ 7.19489, 44.66742, 0.0 ], [ 7.19488, 44.66742, 0.0 ], [ 7.19424, 44.66656, 0.0 ], [ 7.19417, 44.66644, 0.0 ], [ 7.19413, 44.66629, 0.0 ], [ 7.19411, 44.66593, 0.0 ], [ 7.19405, 44.66575, 0.0 ], [ 7.19398, 44.66568, 0.0 ], [ 7.19391, 44.66564, 0.0 ], [ 7.19387, 44.66563, 0.0 ], [ 7.1936, 44.66562, 0.0 ], [ 7.19344, 44.66564, 0.0 ], [ 7.19333, 44.66564, 0.0 ], [ 7.19323, 44.66566, 0.0 ], [ 7.19295, 44.66581, 0.0 ], [ 7.19293, 44.66581, 0.0 ], [ 7.19268, 44.66592, 0.0 ], [ 7.19257, 44.66592, 0.0 ], [ 7.19239, 44.66589, 0.0 ], [ 7.19227, 44.66589, 0.0 ], [ 7.19222, 44.6659, 0.0 ], [ 7.19216, 44.66594, 0.0 ], [ 7.1921, 44.666, 0.0 ], [ 7.19199, 44.66622, 0.0 ], [ 7.19196, 44.66625, 0.0 ], [ 7.19193, 44.66631, 0.0 ], [ 7.19152, 44.66664, 0.0 ], [ 7.19131, 44.66685, 0.0 ], [ 7.1912, 44.667, 0.0 ], [ 7.19117, 44.66707, 0.0 ], [ 7.19112, 44.66725, 0.0 ], [ 7.1911, 44.66728, 0.0 ], [ 7.19104, 44.66745, 0.0 ], [ 7.19103, 44.66745, 0.0 ], [ 7.19079, 44.66799, 0.0 ], [ 7.19072, 44.66806, 0.0 ], [ 7.19058, 44.66816, 0.0 ], [ 7.19052, 44.66824, 0.0 ], [ 7.19052, 44.66827, 0.0 ], [ 7.19054, 44.66832, 0.0 ], [ 7.19064, 44.66844, 0.0 ], [ 7.19065, 44.66846, 0.0 ], [ 7.19065, 44.66858, 0.0 ], [ 7.19057, 44.66899, 0.0 ], [ 7.19047, 44.6693, 0.0 ], [ 7.19047, 44.66932, 0.0 ], [ 7.19043, 44.66946, 0.0 ], [ 7.19029, 44.66976, 0.0 ], [ 7.19021, 44.66988, 0.0 ], [ 7.19018, 44.66997, 0.0 ], [ 7.19018, 44.66999, 0.0 ], [ 7.19019, 44.67002, 0.0 ], [ 7.19023, 44.67009, 0.0 ], [ 7.19026, 44.67012, 0.0 ], [ 7.19031, 44.67014, 0.0 ], [ 7.19034, 44.67016, 0.0 ], [ 7.1907, 44.67032, 0.0 ], [ 7.19073, 44.67034, 0.0 ], [ 7.1908, 44.67037, 0.0 ], [ 7.19086, 44.67042, 0.0 ], [ 7.1909, 44.67047, 0.0 ], [ 7.1909, 44.67048, 0.0 ], [ 7.19094, 44.67053, 0.0 ], [ 7.191, 44.67063, 0.0 ], [ 7.19108, 44.6708, 0.0 ], [ 7.19109, 44.67084, 0.0 ], [ 7.19116, 44.67095, 0.0 ], [ 7.19123, 44.6711, 0.0 ], [ 7.19131, 44.67123, 0.0 ], [ 7.19131, 44.67126, 0.0 ], [ 7.19129, 44.67131, 0.0 ], [ 7.19131, 44.67133, 0.0 ], [ 7.19133, 44.67138, 0.0 ], [ 7.19134, 44.67144, 0.0 ], [ 7.19134, 44.6716, 0.0 ], [ 7.1913, 44.67184, 0.0 ], [ 7.1913, 44.67188, 0.0 ], [ 7.19128, 44.67195, 0.0 ], [ 7.19118, 44.67209, 0.0 ], [ 7.19109, 44.67216, 0.0 ], [ 7.1907, 44.67239, 0.0 ], [ 7.1907, 44.6724, 0.0 ], [ 7.19058, 44.67247, 0.0 ], [ 7.1904, 44.67268, 0.0 ], [ 7.19027, 44.6729, 0.0 ], [ 7.19022, 44.67301, 0.0 ], [ 7.19019, 44.67305, 0.0 ], [ 7.19016, 44.67318, 0.0 ], [ 7.19016, 44.67322, 0.0 ], [ 7.19017, 44.67325, 0.0 ], [ 7.19019, 44.67327, 0.0 ], [ 7.19028, 44.67332, 0.0 ], [ 7.19029, 44.67332, 0.0 ], [ 7.19095, 44.67359, 0.0 ], [ 7.19126, 44.67379, 0.0 ], [ 7.19132, 44.67381, 0.0 ], [ 7.19134, 44.67381, 0.0 ], [ 7.19141, 44.67383, 0.0 ], [ 7.19211, 44.67382, 0.0 ], [ 7.19222, 44.67383, 0.0 ], [ 7.19234, 44.67386, 0.0 ], [ 7.19237, 44.67386, 0.0 ], [ 7.19261, 44.67391, 0.0 ], [ 7.19341, 44.67402, 0.0 ], [ 7.19357, 44.67406, 0.0 ], [ 7.19369, 44.67411, 0.0 ], [ 7.19377, 44.67416, 0.0 ], [ 7.19384, 44.67426, 0.0 ], [ 7.19389, 44.67439, 0.0 ], [ 7.19389, 44.67448, 0.0 ], [ 7.19387, 44.67459, 0.0 ], [ 7.19385, 44.67463, 0.0 ], [ 7.1937, 44.67479, 0.0 ], [ 7.19366, 44.67482, 0.0 ], [ 7.19366, 44.67483, 0.0 ], [ 7.19364, 44.67486, 0.0 ], [ 7.19365, 44.67497, 0.0 ], [ 7.19366, 44.675, 0.0 ], [ 7.19376, 44.67516, 0.0 ], [ 7.1939, 44.67531, 0.0 ], [ 7.19391, 44.67533, 0.0 ], [ 7.19393, 44.67543, 0.0 ], [ 7.19392, 44.67549, 0.0 ], [ 7.19389, 44.67554, 0.0 ], [ 7.19379, 44.67566, 0.0 ], [ 7.19361, 44.67598, 0.0 ], [ 7.19361, 44.67599, 0.0 ], [ 7.19358, 44.67605, 0.0 ], [ 7.19356, 44.67612, 0.0 ], [ 7.19356, 44.67618, 0.0 ], [ 7.19357, 44.67619, 0.0 ], [ 7.19358, 44.67622, 0.0 ], [ 7.1936, 44.67625, 0.0 ], [ 7.19369, 44.6763, 0.0 ], [ 7.19377, 44.67633, 0.0 ], [ 7.19404, 44.67652, 0.0 ], [ 7.19408, 44.67653, 0.0 ], [ 7.19412, 44.67655, 0.0 ], [ 7.19466, 44.67667, 0.0 ], [ 7.19492, 44.67683, 0.0 ], [ 7.19518, 44.67696, 0.0 ], [ 7.19526, 44.67698, 0.0 ], [ 7.19543, 44.67698, 0.0 ], [ 7.19574, 44.67693, 0.0 ], [ 7.19586, 44.67693, 0.0 ], [ 7.19588, 44.67694, 0.0 ], [ 7.19596, 44.67695, 0.0 ], [ 7.19605, 44.67699, 0.0 ], [ 7.19622, 44.67709, 0.0 ], [ 7.19661, 44.67726, 0.0 ], [ 7.19669, 44.67731, 0.0 ], [ 7.19676, 44.67738, 0.0 ], [ 7.19698, 44.67751, 0.0 ], [ 7.19703, 44.67755, 0.0 ], [ 7.19723, 44.6776, 0.0 ], [ 7.19725, 44.67761, 0.0 ], [ 7.19735, 44.67761, 0.0 ], [ 7.19742, 44.67762, 0.0 ], [ 7.1976, 44.67762, 0.0 ], [ 7.19898, 44.67748, 0.0 ], [ 7.19918, 44.67748, 0.0 ], [ 7.19937, 44.6775, 0.0 ], [ 7.1995, 44.67753, 0.0 ], [ 7.19966, 44.67762, 0.0 ], [ 7.19969, 44.67765, 0.0 ], [ 7.19972, 44.67767, 0.0 ], [ 7.19975, 44.67775, 0.0 ], [ 7.19977, 44.67785, 0.0 ], [ 7.19982, 44.67795, 0.0 ], [ 7.19988, 44.67803, 0.0 ], [ 7.19996, 44.67811, 0.0 ], [ 7.20016, 44.67827, 0.0 ], [ 7.20029, 44.67835, 0.0 ], [ 7.20056, 44.67843, 0.0 ], [ 7.20061, 44.67846, 0.0 ], [ 7.20065, 44.67852, 0.0 ], [ 7.20068, 44.6786, 0.0 ], [ 7.20074, 44.67868, 0.0 ], [ 7.20082, 44.67875, 0.0 ], [ 7.20092, 44.6788, 0.0 ], [ 7.20093, 44.67881, 0.0 ], [ 7.20106, 44.67885, 0.0 ], [ 7.20209, 44.67896, 0.0 ], [ 7.20227, 44.679, 0.0 ], [ 7.20379, 44.67976, 0.0 ], [ 7.20399, 44.67983, 0.0 ], [ 7.20408, 44.67984, 0.0 ], [ 7.20433, 44.67983, 0.0 ], [ 7.2044, 44.67984, 0.0 ], [ 7.20456, 44.6799, 0.0 ], [ 7.20469, 44.67993, 0.0 ], [ 7.2047, 44.67994, 0.0 ], [ 7.20478, 44.67996, 0.0 ], [ 7.2051, 44.68013, 0.0 ], [ 7.20511, 44.68013, 0.0 ], [ 7.20518, 44.68017, 0.0 ], [ 7.20532, 44.68021, 0.0 ], [ 7.20544, 44.68023, 0.0 ], [ 7.20556, 44.68028, 0.0 ], [ 7.20559, 44.68031, 0.0 ], [ 7.20576, 44.6804, 0.0 ], [ 7.20584, 44.68042, 0.0 ], [ 7.20595, 44.68042, 0.0 ], [ 7.20623, 44.68039, 0.0 ], [ 7.20625, 44.68038, 0.0 ], [ 7.2065, 44.68035, 0.0 ], [ 7.20671, 44.68036, 0.0 ], [ 7.20675, 44.68035, 0.0 ], [ 7.20682, 44.68035, 0.0 ], [ 7.20694, 44.68033, 0.0 ], [ 7.20705, 44.68029, 0.0 ], [ 7.20723, 44.68026, 0.0 ], [ 7.2073, 44.68026, 0.0 ], [ 7.20747, 44.68029, 0.0 ], [ 7.20748, 44.6803, 0.0 ], [ 7.20756, 44.68033, 0.0 ], [ 7.20769, 44.6804, 0.0 ], [ 7.20805, 44.68064, 0.0 ], [ 7.20811, 44.68069, 0.0 ], [ 7.20815, 44.68074, 0.0 ], [ 7.20818, 44.68083, 0.0 ], [ 7.20818, 44.6809, 0.0 ], [ 7.20822, 44.68105, 0.0 ], [ 7.20843, 44.68132, 0.0 ], [ 7.20862, 44.68151, 0.0 ], [ 7.20872, 44.68159, 0.0 ], [ 7.20875, 44.68163, 0.0 ], [ 7.20882, 44.68168, 0.0 ], [ 7.20888, 44.68168, 0.0 ], [ 7.2089, 44.68167, 0.0 ], [ 7.20892, 44.68165, 0.0 ], [ 7.20892, 44.68163, 0.0 ], [ 7.20888, 44.68156, 0.0 ], [ 7.20885, 44.68153, 0.0 ], [ 7.20864, 44.68138, 0.0 ], [ 7.20848, 44.68121, 0.0 ], [ 7.20846, 44.68116, 0.0 ], [ 7.20843, 44.68112, 0.0 ], [ 7.20841, 44.68106, 0.0 ], [ 7.20841, 44.68104, 0.0 ], [ 7.20838, 44.68093, 0.0 ], [ 7.20838, 44.68081, 0.0 ], [ 7.20839, 44.68076, 0.0 ], [ 7.20839, 44.68061, 0.0 ], [ 7.2084, 44.68057, 0.0 ], [ 7.20836, 44.68049, 0.0 ], [ 7.20814, 44.68021, 0.0 ], [ 7.20807, 44.68016, 0.0 ], [ 7.20798, 44.68007, 0.0 ], [ 7.20781, 44.67995, 0.0 ], [ 7.2078, 44.67995, 0.0 ], [ 7.20775, 44.67992, 0.0 ], [ 7.20771, 44.67992, 0.0 ], [ 7.20756, 44.67989, 0.0 ], [ 7.20751, 44.67989, 0.0 ], [ 7.20743, 44.67987, 0.0 ], [ 7.2074, 44.67984, 0.0 ], [ 7.2074, 44.67983, 0.0 ], [ 7.20741, 44.67982, 0.0 ], [ 7.20743, 44.67981, 0.0 ], [ 7.20744, 44.67981, 0.0 ], [ 7.20746, 44.6798, 0.0 ], [ 7.20769, 44.67981, 0.0 ], [ 7.20793, 44.67987, 0.0 ], [ 7.20795, 44.67987, 0.0 ], [ 7.20816, 44.67995, 0.0 ], [ 7.20832, 44.68003, 0.0 ], [ 7.20883, 44.68044, 0.0 ], [ 7.2089, 44.68052, 0.0 ], [ 7.2089, 44.68053, 0.0 ], [ 7.20891, 44.68055, 0.0 ], [ 7.20885, 44.68082, 0.0 ], [ 7.20885, 44.68091, 0.0 ], [ 7.20891, 44.68103, 0.0 ], [ 7.20894, 44.68106, 0.0 ], [ 7.20897, 44.68108, 0.0 ], [ 7.20902, 44.6811, 0.0 ], [ 7.20905, 44.68112, 0.0 ], [ 7.20906, 44.68112, 0.0 ], [ 7.20951, 44.68127, 0.0 ], [ 7.20962, 44.68132, 0.0 ], [ 7.20967, 44.68136, 0.0 ], [ 7.2097, 44.6814, 0.0 ], [ 7.2097, 44.68144, 0.0 ], [ 7.20964, 44.68156, 0.0 ], [ 7.20963, 44.6816, 0.0 ], [ 7.20947, 44.68176, 0.0 ], [ 7.20942, 44.68184, 0.0 ], [ 7.20941, 44.68188, 0.0 ], [ 7.20941, 44.68198, 0.0 ], [ 7.20944, 44.68206, 0.0 ], [ 7.20944, 44.68207, 0.0 ], [ 7.20956, 44.68227, 0.0 ], [ 7.21016, 44.68297, 0.0 ], [ 7.21016, 44.683, 0.0 ], [ 7.21017, 44.683, 0.0 ], [ 7.21016, 44.68302, 0.0 ], [ 7.21016, 44.68305, 0.0 ], [ 7.21015, 44.68307, 0.0 ], [ 7.21013, 44.68308, 0.0 ], [ 7.20991, 44.68311, 0.0 ], [ 7.20968, 44.68311, 0.0 ], [ 7.20951, 44.68314, 0.0 ], [ 7.20942, 44.68318, 0.0 ], [ 7.20938, 44.68319, 0.0 ], [ 7.20929, 44.68332, 0.0 ], [ 7.20928, 44.68332, 0.0 ], [ 7.20924, 44.68337, 0.0 ], [ 7.20908, 44.68344, 0.0 ], [ 7.209, 44.68349, 0.0 ], [ 7.20894, 44.68355, 0.0 ], [ 7.2089, 44.68363, 0.0 ], [ 7.20887, 44.68367, 0.0 ], [ 7.20885, 44.68372, 0.0 ], [ 7.20873, 44.68387, 0.0 ], [ 7.2085, 44.68398, 0.0 ], [ 7.20849, 44.68399, 0.0 ], [ 7.20835, 44.68406, 0.0 ], [ 7.20832, 44.6841, 0.0 ], [ 7.2083, 44.68416, 0.0 ], [ 7.20829, 44.68449, 0.0 ], [ 7.20827, 44.68456, 0.0 ], [ 7.20827, 44.68458, 0.0 ], [ 7.20821, 44.68467, 0.0 ], [ 7.20815, 44.68471, 0.0 ], [ 7.20813, 44.68473, 0.0 ], [ 7.20812, 44.68473, 0.0 ], [ 7.20808, 44.68477, 0.0 ], [ 7.20806, 44.68483, 0.0 ], [ 7.20806, 44.68493, 0.0 ], [ 7.20802, 44.68504, 0.0 ], [ 7.20777, 44.68534, 0.0 ], [ 7.20742, 44.68565, 0.0 ], [ 7.20739, 44.6857, 0.0 ], [ 7.20737, 44.68577, 0.0 ], [ 7.20737, 44.68581, 0.0 ], [ 7.20742, 44.68591, 0.0 ], [ 7.20768, 44.68632, 0.0 ], [ 7.20793, 44.68617, 0.0 ], [ 7.20794, 44.68617, 0.0 ], [ 7.20853, 44.68583, 0.0 ], [ 7.20866, 44.68574, 0.0 ], [ 7.20902, 44.68542, 0.0 ], [ 7.20911, 44.68532, 0.0 ], [ 7.20927, 44.68508, 0.0 ], [ 7.20938, 44.68495, 0.0 ], [ 7.20958, 44.68477, 0.0 ], [ 7.20972, 44.68469, 0.0 ], [ 7.20973, 44.68468, 0.0 ], [ 7.20984, 44.68462, 0.0 ], [ 7.21015, 44.68451, 0.0 ], [ 7.21016, 44.6845, 0.0 ], [ 7.21044, 44.6844, 0.0 ], [ 7.21086, 44.6843, 0.0 ], [ 7.21214, 44.68416, 0.0 ], [ 7.21438, 44.68405, 0.0 ], [ 7.21441, 44.68404, 0.0 ], [ 7.21539, 44.68397, 0.0 ], [ 7.21662, 44.68379, 0.0 ], [ 7.21686, 44.68374, 0.0 ], [ 7.21688, 44.68373, 0.0 ], [ 7.2175, 44.68359, 0.0 ], [ 7.21782, 44.68354, 0.0 ], [ 7.21793, 44.68354, 0.0 ], [ 7.21887, 44.68363, 0.0 ], [ 7.21907, 44.68367, 0.0 ], [ 7.21937, 44.6837, 0.0 ], [ 7.21956, 44.68374, 0.0 ], [ 7.21957, 44.68375, 0.0 ], [ 7.21994, 44.68393, 0.0 ], [ 7.22035, 44.6842, 0.0 ], [ 7.22069, 44.68436, 0.0 ], [ 7.22117, 44.68454, 0.0 ], [ 7.22173, 44.68469, 0.0 ], [ 7.22195, 44.6847, 0.0 ], [ 7.22315, 44.68458, 0.0 ], [ 7.22323, 44.68458, 0.0 ], [ 7.22325, 44.68457, 0.0 ], [ 7.22334, 44.68455, 0.0 ], [ 7.22461, 44.68413, 0.0 ], [ 7.22464, 44.68411, 0.0 ], [ 7.22477, 44.68409, 0.0 ], [ 7.22482, 44.68409, 0.0 ], [ 7.22485, 44.68408, 0.0 ], [ 7.22494, 44.6841, 0.0 ], [ 7.22505, 44.68416, 0.0 ], [ 7.22575, 44.68535, 0.0 ], [ 7.22595, 44.68559, 0.0 ], [ 7.22681, 44.68636, 0.0 ], [ 7.22703, 44.68648, 0.0 ], [ 7.22704, 44.68649, 0.0 ], [ 7.22722, 44.68656, 0.0 ], [ 7.22741, 44.68661, 0.0 ], [ 7.22796, 44.68668, 0.0 ], [ 7.23083, 44.6866, 0.0 ], [ 7.23091, 44.68659, 0.0 ], [ 7.23624, 44.68655, 0.0 ], [ 7.23653, 44.68659, 0.0 ], [ 7.23957, 44.68733, 0.0 ], [ 7.2406, 44.68738, 0.0 ], [ 7.24173, 44.68757, 0.0 ], [ 7.24222, 44.6876, 0.0 ], [ 7.24248, 44.68757, 0.0 ], [ 7.24401, 44.68729, 0.0 ], [ 7.24466, 44.6872, 0.0 ], [ 7.24588, 44.6871, 0.0 ], [ 7.25134, 44.686, 0.0 ], [ 7.25542, 44.68543, 0.0 ], [ 7.25936, 44.68518, 0.0 ], [ 7.25955, 44.68519, 0.0 ], [ 7.26052, 44.68512, 0.0 ], [ 7.26109, 44.68501, 0.0 ], [ 7.26215, 44.68467, 0.0 ], [ 7.26313, 44.68423, 0.0 ], [ 7.26783, 44.68058, 0.0 ], [ 7.26789, 44.68023, 0.0 ], [ 7.26787, 44.68015, 0.0 ], [ 7.26788, 44.68009, 0.0 ], [ 7.26779, 44.67997, 0.0 ], [ 7.26767, 44.67975, 0.0 ], [ 7.26767, 44.67968, 0.0 ], [ 7.26768, 44.67964, 0.0 ], [ 7.26773, 44.67958, 0.0 ], [ 7.26777, 44.67955, 0.0 ], [ 7.26797, 44.67947, 0.0 ], [ 7.26836, 44.67938, 0.0 ], [ 7.26851, 44.67933, 0.0 ], [ 7.26871, 44.67924, 0.0 ], [ 7.26883, 44.67916, 0.0 ], [ 7.26902, 44.67897, 0.0 ], [ 7.26917, 44.67877, 0.0 ], [ 7.26945, 44.67797, 0.0 ], [ 7.26954, 44.6778, 0.0 ], [ 7.26964, 44.67767, 0.0 ], [ 7.27, 44.67742, 0.0 ], [ 7.27016, 44.67733, 0.0 ], [ 7.2704, 44.67713, 0.0 ], [ 7.27044, 44.67707, 0.0 ], [ 7.27046, 44.67705, 0.0 ], [ 7.27049, 44.67699, 0.0 ], [ 7.2705, 44.6769, 0.0 ], [ 7.27046, 44.67678, 0.0 ], [ 7.27037, 44.6766, 0.0 ], [ 7.27032, 44.67655, 0.0 ], [ 7.27031, 44.67655, 0.0 ], [ 7.27001, 44.67627, 0.0 ], [ 7.26927, 44.67569, 0.0 ], [ 7.26828, 44.67445, 0.0 ], [ 7.26826, 44.67441, 0.0 ], [ 7.26825, 44.6744, 0.0 ], [ 7.26822, 44.67433, 0.0 ], [ 7.26822, 44.67425, 0.0 ], [ 7.26826, 44.67415, 0.0 ], [ 7.26836, 44.6741, 0.0 ], [ 7.26837, 44.6741, 0.0 ], [ 7.26839, 44.67409, 0.0 ], [ 7.26843, 44.67409, 0.0 ], [ 7.26858, 44.67412, 0.0 ], [ 7.2686, 44.67413, 0.0 ], [ 7.26942, 44.67436, 0.0 ], [ 7.27087, 44.67484, 0.0 ], [ 7.27092, 44.67485, 0.0 ], [ 7.27105, 44.67485, 0.0 ], [ 7.27131, 44.67479, 0.0 ], [ 7.27151, 44.6747, 0.0 ], [ 7.27167, 44.6746, 0.0 ], [ 7.27195, 44.6743, 0.0 ], [ 7.27198, 44.67418, 0.0 ], [ 7.27198, 44.67411, 0.0 ], [ 7.27196, 44.67406, 0.0 ], [ 7.27187, 44.67395, 0.0 ], [ 7.27153, 44.6737, 0.0 ], [ 7.27136, 44.67351, 0.0 ], [ 7.27132, 44.67343, 0.0 ], [ 7.27131, 44.67324, 0.0 ], [ 7.27132, 44.67318, 0.0 ], [ 7.2714, 44.6731, 0.0 ], [ 7.27141, 44.6731, 0.0 ], [ 7.27175, 44.67281, 0.0 ], [ 7.27224, 44.67244, 0.0 ], [ 7.27225, 44.67244, 0.0 ], [ 7.27247, 44.67223, 0.0 ], [ 7.27255, 44.67212, 0.0 ], [ 7.27266, 44.67183, 0.0 ], [ 7.27266, 44.67139, 0.0 ], [ 7.27263, 44.67091, 0.0 ], [ 7.2725, 44.67038, 0.0 ], [ 7.27242, 44.67021, 0.0 ], [ 7.27227, 44.67001, 0.0 ], [ 7.27208, 44.66971, 0.0 ], [ 7.27203, 44.6696, 0.0 ], [ 7.27201, 44.66945, 0.0 ], [ 7.27203, 44.66936, 0.0 ], [ 7.27203, 44.66934, 0.0 ], [ 7.27212, 44.66919, 0.0 ], [ 7.27223, 44.66908, 0.0 ], [ 7.27233, 44.669, 0.0 ], [ 7.27256, 44.66889, 0.0 ], [ 7.27271, 44.66887, 0.0 ], [ 7.2731, 44.66888, 0.0 ], [ 7.27351, 44.66893, 0.0 ], [ 7.27396, 44.66895, 0.0 ], [ 7.27421, 44.66893, 0.0 ], [ 7.27454, 44.66882, 0.0 ], [ 7.27464, 44.66876, 0.0 ], [ 7.27465, 44.66876, 0.0 ], [ 7.27482, 44.66859, 0.0 ], [ 7.27524, 44.66809, 0.0 ], [ 7.27551, 44.6677, 0.0 ], [ 7.27556, 44.66759, 0.0 ], [ 7.27558, 44.66749, 0.0 ], [ 7.27559, 44.66748, 0.0 ], [ 7.27556, 44.66703, 0.0 ], [ 7.27548, 44.6665, 0.0 ], [ 7.27547, 44.6661, 0.0 ], [ 7.27555, 44.66576, 0.0 ], [ 7.27567, 44.66554, 0.0 ], [ 7.27567, 44.66552, 0.0 ], [ 7.27576, 44.66545, 0.0 ], [ 7.27585, 44.6654, 0.0 ], [ 7.27608, 44.66535, 0.0 ], [ 7.277, 44.66534, 0.0 ], [ 7.27716, 44.6653, 0.0 ], [ 7.27727, 44.66525, 0.0 ], [ 7.27739, 44.66516, 0.0 ], [ 7.27753, 44.66501, 0.0 ], [ 7.27761, 44.66485, 0.0 ], [ 7.27762, 44.66465, 0.0 ], [ 7.27739, 44.66312, 0.0 ], [ 7.27742, 44.66284, 0.0 ], [ 7.27749, 44.66261, 0.0 ], [ 7.27749, 44.66258, 0.0 ], [ 7.27761, 44.66227, 0.0 ], [ 7.27762, 44.66218, 0.0 ], [ 7.27764, 44.66211, 0.0 ], [ 7.27763, 44.66205, 0.0 ], [ 7.27756, 44.66194, 0.0 ], [ 7.27741, 44.66177, 0.0 ], [ 7.27677, 44.6613, 0.0 ], [ 7.27648, 44.66112, 0.0 ], [ 7.27634, 44.66107, 0.0 ], [ 7.27628, 44.66107, 0.0 ], [ 7.27623, 44.66106, 0.0 ], [ 7.27602, 44.66109, 0.0 ], [ 7.27593, 44.66113, 0.0 ], [ 7.27585, 44.66119, 0.0 ], [ 7.2758, 44.66125, 0.0 ], [ 7.27578, 44.66136, 0.0 ], [ 7.27582, 44.66147, 0.0 ], [ 7.27593, 44.66158, 0.0 ], [ 7.27623, 44.6618, 0.0 ], [ 7.27632, 44.66188, 0.0 ], [ 7.27671, 44.66216, 0.0 ], [ 7.27675, 44.66226, 0.0 ], [ 7.27674, 44.66238, 0.0 ], [ 7.2767, 44.66254, 0.0 ], [ 7.27659, 44.66272, 0.0 ], [ 7.27657, 44.66277, 0.0 ], [ 7.27346, 44.66517, 0.0 ], [ 7.27295, 44.66552, 0.0 ], [ 7.27273, 44.66563, 0.0 ], [ 7.2723, 44.66564, 0.0 ], [ 7.27201, 44.66559, 0.0 ], [ 7.27167, 44.66546, 0.0 ], [ 7.27077, 44.66499, 0.0 ], [ 7.27067, 44.66495, 0.0 ], [ 7.27059, 44.66493, 0.0 ], [ 7.27051, 44.66493, 0.0 ], [ 7.27037, 44.66496, 0.0 ], [ 7.26983, 44.66525, 0.0 ], [ 7.26967, 44.66529, 0.0 ], [ 7.26945, 44.6653, 0.0 ], [ 7.26911, 44.66525, 0.0 ], [ 7.26892, 44.66525, 0.0 ], [ 7.26879, 44.66529, 0.0 ], [ 7.26862, 44.6654, 0.0 ], [ 7.26858, 44.66546, 0.0 ], [ 7.26858, 44.66547, 0.0 ], [ 7.26852, 44.6656, 0.0 ], [ 7.26847, 44.666, 0.0 ], [ 7.26841, 44.66627, 0.0 ], [ 7.26838, 44.66634, 0.0 ], [ 7.2682, 44.6665, 0.0 ], [ 7.26773, 44.6668, 0.0 ], [ 7.26764, 44.66688, 0.0 ], [ 7.26755, 44.667, 0.0 ], [ 7.26747, 44.66716, 0.0 ], [ 7.26724, 44.66791, 0.0 ], [ 7.26716, 44.66805, 0.0 ], [ 7.2669, 44.6683, 0.0 ], [ 7.26629, 44.66867, 0.0 ], [ 7.26617, 44.6687, 0.0 ], [ 7.26607, 44.6687, 0.0 ], [ 7.26593, 44.66866, 0.0 ], [ 7.26587, 44.66861, 0.0 ], [ 7.26585, 44.66858, 0.0 ], [ 7.26584, 44.66854, 0.0 ], [ 7.26586, 44.66847, 0.0 ], [ 7.2659, 44.66842, 0.0 ], [ 7.26603, 44.66836, 0.0 ], [ 7.26643, 44.66827, 0.0 ], [ 7.26659, 44.6682, 0.0 ], [ 7.26676, 44.66809, 0.0 ], [ 7.26688, 44.66797, 0.0 ], [ 7.26696, 44.66784, 0.0 ], [ 7.26701, 44.66771, 0.0 ], [ 7.26701, 44.66747, 0.0 ], [ 7.26698, 44.66713, 0.0 ], [ 7.26699, 44.66683, 0.0 ], [ 7.26698, 44.66678, 0.0 ], [ 7.26701, 44.66667, 0.0 ], [ 7.2671, 44.66653, 0.0 ], [ 7.26747, 44.66613, 0.0 ], [ 7.26763, 44.66587, 0.0 ], [ 7.26767, 44.66569, 0.0 ], [ 7.26771, 44.66507, 0.0 ], [ 7.26775, 44.66492, 0.0 ], [ 7.26779, 44.66487, 0.0 ], [ 7.26781, 44.66483, 0.0 ], [ 7.26784, 44.66481, 0.0 ], [ 7.26791, 44.66474, 0.0 ], [ 7.26816, 44.66454, 0.0 ], [ 7.26871, 44.66417, 0.0 ], [ 7.26917, 44.66369, 0.0 ], [ 7.26936, 44.66356, 0.0 ], [ 7.26953, 44.66347, 0.0 ], [ 7.2701, 44.66326, 0.0 ], [ 7.27039, 44.66323, 0.0 ], [ 7.27066, 44.66323, 0.0 ], [ 7.27119, 44.66335, 0.0 ], [ 7.27138, 44.66334, 0.0 ], [ 7.27151, 44.66331, 0.0 ], [ 7.27168, 44.66323, 0.0 ], [ 7.27178, 44.66316, 0.0 ], [ 7.27187, 44.66304, 0.0 ], [ 7.27192, 44.66286, 0.0 ], [ 7.27192, 44.66276, 0.0 ], [ 7.27188, 44.66265, 0.0 ], [ 7.2718, 44.66256, 0.0 ], [ 7.27071, 44.66201, 0.0 ], [ 7.27041, 44.66177, 0.0 ], [ 7.27032, 44.66166, 0.0 ], [ 7.2702, 44.66154, 0.0 ], [ 7.27018, 44.66151, 0.0 ], [ 7.26994, 44.66126, 0.0 ], [ 7.26984, 44.66118, 0.0 ], [ 7.26965, 44.66112, 0.0 ], [ 7.2693, 44.66104, 0.0 ], [ 7.26859, 44.66081, 0.0 ], [ 7.26851, 44.66074, 0.0 ], [ 7.26844, 44.66065, 0.0 ], [ 7.26838, 44.66049, 0.0 ], [ 7.26838, 44.66043, 0.0 ], [ 7.26837, 44.66039, 0.0 ], [ 7.26838, 44.66031, 0.0 ], [ 7.26841, 44.66025, 0.0 ], [ 7.26842, 44.66025, 0.0 ], [ 7.26854, 44.66005, 0.0 ], [ 7.26909, 44.6594, 0.0 ], [ 7.26953, 44.65896, 0.0 ], [ 7.26961, 44.65877, 0.0 ], [ 7.26962, 44.65869, 0.0 ], [ 7.2696, 44.65847, 0.0 ], [ 7.26958, 44.6584, 0.0 ], [ 7.26896, 44.65765, 0.0 ], [ 7.26864, 44.65731, 0.0 ], [ 7.2685, 44.65721, 0.0 ], [ 7.26838, 44.65717, 0.0 ], [ 7.26829, 44.65716, 0.0 ], [ 7.26763, 44.65716, 0.0 ], [ 7.26741, 44.65713, 0.0 ], [ 7.26729, 44.65709, 0.0 ], [ 7.26723, 44.65706, 0.0 ], [ 7.26716, 44.65701, 0.0 ], [ 7.26709, 44.65686, 0.0 ], [ 7.26708, 44.65685, 0.0 ], [ 7.26708, 44.65676, 0.0 ], [ 7.26738, 44.65429, 0.0 ], [ 7.26735, 44.65414, 0.0 ], [ 7.26731, 44.65403, 0.0 ], [ 7.26722, 44.65392, 0.0 ], [ 7.26707, 44.65381, 0.0 ], [ 7.26692, 44.65374, 0.0 ], [ 7.26691, 44.65374, 0.0 ], [ 7.26655, 44.6536, 0.0 ], [ 7.2662, 44.6535, 0.0 ], [ 7.26579, 44.65342, 0.0 ], [ 7.26566, 44.65342, 0.0 ], [ 7.26556, 44.6534, 0.0 ], [ 7.26526, 44.65339, 0.0 ], [ 7.26509, 44.65336, 0.0 ], [ 7.26482, 44.65323, 0.0 ], [ 7.26479, 44.6532, 0.0 ], [ 7.26477, 44.65319, 0.0 ], [ 7.26445, 44.65293, 0.0 ], [ 7.26408, 44.65269, 0.0 ], [ 7.26384, 44.65249, 0.0 ], [ 7.2634, 44.65196, 0.0 ], [ 7.26339, 44.65194, 0.0 ], [ 7.26322, 44.65172, 0.0 ], [ 7.26302, 44.65154, 0.0 ], [ 7.26299, 44.65153, 0.0 ], [ 7.26282, 44.6514, 0.0 ], [ 7.26249, 44.65124, 0.0 ], [ 7.26219, 44.65106, 0.0 ], [ 7.26085, 44.65035, 0.0 ], [ 7.26052, 44.65014, 0.0 ], [ 7.26034, 44.64998, 0.0 ], [ 7.26021, 44.64984, 0.0 ], [ 7.25925, 44.64827, 0.0 ], [ 7.25914, 44.64798, 0.0 ], [ 7.25914, 44.64751, 0.0 ], [ 7.25909, 44.64734, 0.0 ], [ 7.25904, 44.64725, 0.0 ], [ 7.25901, 44.64723, 0.0 ], [ 7.25891, 44.64713, 0.0 ], [ 7.25878, 44.64705, 0.0 ], [ 7.25838, 44.64685, 0.0 ], [ 7.2579, 44.64657, 0.0 ], [ 7.25719, 44.6462, 0.0 ], [ 7.25679, 44.64596, 0.0 ], [ 7.25645, 44.64568, 0.0 ], [ 7.25632, 44.64563, 0.0 ], [ 7.25621, 44.64562, 0.0 ], [ 7.25616, 44.64565, 0.0 ], [ 7.25613, 44.64566, 0.0 ], [ 7.25609, 44.64572, 0.0 ], [ 7.25608, 44.64578, 0.0 ], [ 7.2561, 44.64583, 0.0 ], [ 7.25615, 44.64589, 0.0 ], [ 7.2563, 44.64598, 0.0 ], [ 7.25653, 44.64615, 0.0 ], [ 7.25657, 44.64617, 0.0 ], [ 7.25708, 44.64652, 0.0 ], [ 7.25723, 44.64664, 0.0 ], [ 7.25735, 44.64677, 0.0 ], [ 7.25767, 44.64738, 0.0 ], [ 7.25784, 44.64777, 0.0 ], [ 7.25789, 44.64793, 0.0 ], [ 7.25789, 44.64801, 0.0 ], [ 7.25788, 44.64808, 0.0 ], [ 7.25784, 44.64822, 0.0 ], [ 7.25744, 44.64872, 0.0 ], [ 7.25729, 44.64906, 0.0 ], [ 7.25727, 44.64917, 0.0 ], [ 7.25726, 44.64917, 0.0 ], [ 7.25679, 44.65063, 0.0 ], [ 7.25672, 44.65091, 0.0 ], [ 7.25673, 44.65118, 0.0 ], [ 7.25678, 44.65129, 0.0 ], [ 7.2569, 44.65148, 0.0 ], [ 7.258, 44.65277, 0.0 ], [ 7.25817, 44.65307, 0.0 ], [ 7.25823, 44.65323, 0.0 ], [ 7.25831, 44.6537, 0.0 ], [ 7.25832, 44.65371, 0.0 ], [ 7.25841, 44.65388, 0.0 ], [ 7.25842, 44.65388, 0.0 ], [ 7.2585, 44.65396, 0.0 ], [ 7.25874, 44.65415, 0.0 ], [ 7.25882, 44.6542, 0.0 ], [ 7.25991, 44.65465, 0.0 ], [ 7.2612, 44.65536, 0.0 ], [ 7.26138, 44.65556, 0.0 ], [ 7.26149, 44.65582, 0.0 ], [ 7.26181, 44.65698, 0.0 ], [ 7.2621, 44.65756, 0.0 ], [ 7.26213, 44.65769, 0.0 ], [ 7.26216, 44.65805, 0.0 ], [ 7.26216, 44.65845, 0.0 ], [ 7.26209, 44.65865, 0.0 ], [ 7.26207, 44.65868, 0.0 ], [ 7.26197, 44.6589, 0.0 ], [ 7.26191, 44.6591, 0.0 ], [ 7.26187, 44.65933, 0.0 ], [ 7.2618, 44.65944, 0.0 ], [ 7.26174, 44.65947, 0.0 ], [ 7.26166, 44.65949, 0.0 ], [ 7.26154, 44.65948, 0.0 ], [ 7.26147, 44.65945, 0.0 ], [ 7.26139, 44.65938, 0.0 ], [ 7.26138, 44.65936, 0.0 ], [ 7.26138, 44.65933, 0.0 ], [ 7.26141, 44.65927, 0.0 ], [ 7.2616, 44.65906, 0.0 ], [ 7.2617, 44.6589, 0.0 ], [ 7.26178, 44.65874, 0.0 ], [ 7.26184, 44.65853, 0.0 ], [ 7.26177, 44.658, 0.0 ], [ 7.26177, 44.65795, 0.0 ], [ 7.26172, 44.65782, 0.0 ], [ 7.26171, 44.65781, 0.0 ], [ 7.26165, 44.65769, 0.0 ], [ 7.26162, 44.65766, 0.0 ], [ 7.26126, 44.65718, 0.0 ], [ 7.26088, 44.6568, 0.0 ], [ 7.26063, 44.65662, 0.0 ], [ 7.26058, 44.65657, 0.0 ], [ 7.26019, 44.65633, 0.0 ], [ 7.25936, 44.6562, 0.0 ], [ 7.25847, 44.65597, 0.0 ], [ 7.2582, 44.65584, 0.0 ], [ 7.25737, 44.65531, 0.0 ], [ 7.2572, 44.65522, 0.0 ], [ 7.2568, 44.65509, 0.0 ], [ 7.2564, 44.655, 0.0 ], [ 7.25608, 44.65489, 0.0 ], [ 7.25605, 44.65486, 0.0 ], [ 7.25574, 44.65467, 0.0 ], [ 7.25531, 44.65426, 0.0 ], [ 7.25513, 44.65402, 0.0 ], [ 7.25463, 44.65315, 0.0 ], [ 7.25437, 44.65291, 0.0 ], [ 7.25418, 44.6528, 0.0 ], [ 7.25361, 44.65253, 0.0 ], [ 7.2536, 44.65253, 0.0 ], [ 7.25347, 44.65244, 0.0 ], [ 7.25308, 44.65209, 0.0 ], [ 7.25293, 44.65201, 0.0 ], [ 7.25292, 44.65201, 0.0 ], [ 7.25251, 44.65179, 0.0 ], [ 7.25143, 44.65106, 0.0 ], [ 7.251, 44.65085, 0.0 ], [ 7.25088, 44.65082, 0.0 ], [ 7.25047, 44.65083, 0.0 ], [ 7.24986, 44.65074, 0.0 ], [ 7.24904, 44.65054, 0.0 ], [ 7.24876, 44.65042, 0.0 ], [ 7.24841, 44.65031, 0.0 ], [ 7.24809, 44.65016, 0.0 ], [ 7.24717, 44.64962, 0.0 ], [ 7.24716, 44.64962, 0.0 ], [ 7.24682, 44.64937, 0.0 ], [ 7.24614, 44.6488, 0.0 ], [ 7.246, 44.64871, 0.0 ], [ 7.24578, 44.64861, 0.0 ], [ 7.24554, 44.64853, 0.0 ], [ 7.24539, 44.64846, 0.0 ], [ 7.24507, 44.64823, 0.0 ], [ 7.24491, 44.64809, 0.0 ], [ 7.24483, 44.64804, 0.0 ], [ 7.2443, 44.64788, 0.0 ], [ 7.24413, 44.64779, 0.0 ], [ 7.24412, 44.64779, 0.0 ], [ 7.24387, 44.64765, 0.0 ], [ 7.24316, 44.64715, 0.0 ], [ 7.2427, 44.64678, 0.0 ], [ 7.2427, 44.64677, 0.0 ], [ 7.2424, 44.64658, 0.0 ], [ 7.24228, 44.64646, 0.0 ], [ 7.24215, 44.64637, 0.0 ], [ 7.24156, 44.64608, 0.0 ], [ 7.24125, 44.6459, 0.0 ], [ 7.24105, 44.64584, 0.0 ], [ 7.24032, 44.64571, 0.0 ], [ 7.23939, 44.64582, 0.0 ], [ 7.23917, 44.64581, 0.0 ], [ 7.23897, 44.64583, 0.0 ], [ 7.23827, 44.64599, 0.0 ], [ 7.23824, 44.64599, 0.0 ], [ 7.23804, 44.64604, 0.0 ], [ 7.23761, 44.64601, 0.0 ], [ 7.23739, 44.64597, 0.0 ], [ 7.23718, 44.64599, 0.0 ], [ 7.23679, 44.64607, 0.0 ], [ 7.2365, 44.64607, 0.0 ], [ 7.23617, 44.64603, 0.0 ], [ 7.23592, 44.64593, 0.0 ], [ 7.23583, 44.64591, 0.0 ], [ 7.23566, 44.64585, 0.0 ], [ 7.23549, 44.64588, 0.0 ], [ 7.23542, 44.64592, 0.0 ], [ 7.23523, 44.64608, 0.0 ], [ 7.23521, 44.64608, 0.0 ], [ 7.23466, 44.64623, 0.0 ], [ 7.23459, 44.64626, 0.0 ], [ 7.23456, 44.64629, 0.0 ], [ 7.23455, 44.64632, 0.0 ], [ 7.23455, 44.64643, 0.0 ], [ 7.23447, 44.64666, 0.0 ], [ 7.2344, 44.64677, 0.0 ], [ 7.23438, 44.64688, 0.0 ], [ 7.23441, 44.64702, 0.0 ], [ 7.23441, 44.64705, 0.0 ], [ 7.23447, 44.64715, 0.0 ], [ 7.23449, 44.64721, 0.0 ], [ 7.23448, 44.64729, 0.0 ], [ 7.23437, 44.64751, 0.0 ], [ 7.23434, 44.64752, 0.0 ], [ 7.23422, 44.64762, 0.0 ], [ 7.23414, 44.64766, 0.0 ], [ 7.23407, 44.64768, 0.0 ], [ 7.23293, 44.64782, 0.0 ], [ 7.23237, 44.64778, 0.0 ], [ 7.23193, 44.64772, 0.0 ], [ 7.23166, 44.64771, 0.0 ], [ 7.23157, 44.64772, 0.0 ], [ 7.23151, 44.64775, 0.0 ], [ 7.23142, 44.64782, 0.0 ], [ 7.23136, 44.64783, 0.0 ], [ 7.2312, 44.64783, 0.0 ], [ 7.23068, 44.64773, 0.0 ], [ 7.23061, 44.64767, 0.0 ], [ 7.23054, 44.64759, 0.0 ], [ 7.23053, 44.64744, 0.0 ], [ 7.23049, 44.64739, 0.0 ], [ 7.2304, 44.64739, 0.0 ], [ 7.23034, 44.64742, 0.0 ], [ 7.23033, 44.64742, 0.0 ], [ 7.23023, 44.64748, 0.0 ], [ 7.23019, 44.64752, 0.0 ], [ 7.23002, 44.64787, 0.0 ], [ 7.22999, 44.64797, 0.0 ], [ 7.22989, 44.64815, 0.0 ], [ 7.22976, 44.64826, 0.0 ], [ 7.2296, 44.64836, 0.0 ], [ 7.2295, 44.64845, 0.0 ], [ 7.22942, 44.64854, 0.0 ], [ 7.22941, 44.64862, 0.0 ], [ 7.2294, 44.64865, 0.0 ], [ 7.22938, 44.64879, 0.0 ], [ 7.22933, 44.64885, 0.0 ], [ 7.22929, 44.64893, 0.0 ], [ 7.22929, 44.64898, 0.0 ], [ 7.22931, 44.64908, 0.0 ], [ 7.22939, 44.64916, 0.0 ], [ 7.22953, 44.64927, 0.0 ], [ 7.22957, 44.64932, 0.0 ], [ 7.2296, 44.64938, 0.0 ], [ 7.2296, 44.64947, 0.0 ], [ 7.22957, 44.64976, 0.0 ], [ 7.22948, 44.64997, 0.0 ], [ 7.22948, 44.65005, 0.0 ], [ 7.2295, 44.65013, 0.0 ], [ 7.22983, 44.65035, 0.0 ], [ 7.23, 44.65081, 0.0 ], [ 7.23028, 44.65117, 0.0 ], [ 7.23033, 44.65127, 0.0 ], [ 7.23032, 44.65131, 0.0 ], [ 7.23027, 44.65139, 0.0 ], [ 7.23021, 44.65141, 0.0 ], [ 7.22932, 44.6516, 0.0 ], [ 7.22916, 44.65165, 0.0 ], [ 7.22901, 44.65175, 0.0 ], [ 7.2289, 44.65188, 0.0 ], [ 7.22887, 44.6519, 0.0 ], [ 7.22883, 44.65199, 0.0 ], [ 7.22873, 44.6521, 0.0 ], [ 7.22811, 44.65255, 0.0 ], [ 7.22797, 44.65262, 0.0 ], [ 7.22782, 44.65266, 0.0 ], [ 7.22753, 44.65271, 0.0 ], [ 7.22673, 44.65307, 0.0 ], [ 7.22646, 44.65311, 0.0 ], [ 7.22642, 44.65311, 0.0 ], [ 7.22638, 44.65312, 0.0 ], [ 7.22633, 44.65317, 0.0 ], [ 7.22631, 44.65324, 0.0 ], [ 7.2263, 44.65334, 0.0 ], [ 7.22629, 44.65337, 0.0 ], [ 7.22629, 44.65343, 0.0 ], [ 7.2265, 44.65443, 0.0 ], [ 7.22656, 44.65461, 0.0 ], [ 7.22656, 44.65462, 0.0 ], [ 7.22677, 44.65497, 0.0 ], [ 7.22681, 44.6551, 0.0 ], [ 7.22683, 44.65524, 0.0 ], [ 7.22683, 44.65547, 0.0 ], [ 7.22682, 44.65551, 0.0 ], [ 7.2268, 44.65595, 0.0 ], [ 7.2269, 44.65615, 0.0 ], [ 7.22693, 44.65617, 0.0 ], [ 7.22708, 44.65633, 0.0 ], [ 7.22733, 44.65655, 0.0 ], [ 7.22739, 44.65662, 0.0 ], [ 7.22747, 44.65705, 0.0 ], [ 7.22757, 44.65729, 0.0 ], [ 7.22772, 44.65749, 0.0 ], [ 7.22788, 44.6578, 0.0 ], [ 7.22791, 44.65784, 0.0 ], [ 7.22821, 44.65841, 0.0 ], [ 7.22838, 44.65863, 0.0 ], [ 7.22853, 44.65874, 0.0 ], [ 7.22895, 44.65895, 0.0 ], [ 7.2291, 44.65907, 0.0 ], [ 7.22915, 44.65919, 0.0 ], [ 7.22915, 44.65926, 0.0 ], [ 7.22909, 44.65961, 0.0 ], [ 7.22911, 44.65994, 0.0 ], [ 7.22925, 44.66048, 0.0 ], [ 7.2293, 44.66059, 0.0 ], [ 7.22936, 44.66068, 0.0 ], [ 7.22941, 44.66072, 0.0 ], [ 7.22968, 44.66082, 0.0 ], [ 7.22996, 44.66096, 0.0 ], [ 7.2302, 44.66114, 0.0 ], [ 7.23038, 44.66131, 0.0 ], [ 7.2305, 44.66147, 0.0 ], [ 7.23054, 44.66156, 0.0 ], [ 7.23053, 44.66174, 0.0 ], [ 7.23046, 44.66192, 0.0 ], [ 7.23036, 44.66233, 0.0 ], [ 7.23031, 44.66248, 0.0 ], [ 7.2303, 44.66254, 0.0 ], [ 7.23032, 44.66259, 0.0 ], [ 7.23033, 44.66264, 0.0 ], [ 7.23044, 44.66272, 0.0 ], [ 7.23052, 44.6628, 0.0 ], [ 7.23058, 44.66296, 0.0 ], [ 7.23056, 44.66332, 0.0 ], [ 7.2306, 44.66354, 0.0 ], [ 7.2306, 44.66369, 0.0 ], [ 7.23056, 44.66383, 0.0 ], [ 7.23041, 44.66403, 0.0 ], [ 7.23026, 44.6642, 0.0 ], [ 7.22952, 44.66486, 0.0 ], [ 7.22939, 44.66503, 0.0 ], [ 7.22929, 44.66527, 0.0 ], [ 7.22925, 44.66548, 0.0 ], [ 7.22924, 44.66568, 0.0 ], [ 7.2293, 44.66585, 0.0 ], [ 7.22951, 44.66615, 0.0 ], [ 7.22961, 44.66636, 0.0 ], [ 7.22974, 44.66652, 0.0 ], [ 7.22986, 44.66685, 0.0 ], [ 7.22994, 44.66702, 0.0 ], [ 7.23008, 44.66719, 0.0 ], [ 7.23017, 44.66736, 0.0 ], [ 7.2302, 44.66748, 0.0 ], [ 7.23021, 44.66804, 0.0 ], [ 7.23029, 44.66814, 0.0 ], [ 7.2304, 44.66823, 0.0 ], [ 7.23045, 44.66829, 0.0 ], [ 7.23058, 44.66858, 0.0 ], [ 7.23064, 44.66881, 0.0 ], [ 7.23066, 44.66899, 0.0 ], [ 7.23075, 44.66947, 0.0 ], [ 7.23104, 44.66991, 0.0 ], [ 7.23134, 44.67015, 0.0 ], [ 7.2322, 44.67049, 0.0 ], [ 7.23253, 44.67066, 0.0 ], [ 7.23284, 44.67086, 0.0 ], [ 7.23415, 44.67142, 0.0 ], [ 7.2343, 44.67147, 0.0 ], [ 7.23436, 44.67152, 0.0 ], [ 7.23466, 44.67171, 0.0 ], [ 7.23467, 44.67177, 0.0 ], [ 7.23466, 44.67178, 0.0 ], [ 7.23463, 44.67184, 0.0 ], [ 7.23452, 44.67188, 0.0 ], [ 7.23442, 44.6719, 0.0 ], [ 7.23412, 44.67189, 0.0 ], [ 7.23385, 44.67191, 0.0 ], [ 7.23335, 44.6719, 0.0 ], [ 7.23318, 44.67186, 0.0 ], [ 7.2327, 44.67163, 0.0 ], [ 7.23244, 44.67156, 0.0 ], [ 7.2311, 44.67111, 0.0 ], [ 7.231, 44.67102, 0.0 ], [ 7.23087, 44.67096, 0.0 ], [ 7.23066, 44.67092, 0.0 ], [ 7.22953, 44.67098, 0.0 ], [ 7.22909, 44.67108, 0.0 ], [ 7.22842, 44.67114, 0.0 ], [ 7.22781, 44.67125, 0.0 ], [ 7.22759, 44.67135, 0.0 ], [ 7.22727, 44.67146, 0.0 ], [ 7.22715, 44.67148, 0.0 ], [ 7.22711, 44.67148, 0.0 ], [ 7.22708, 44.67146, 0.0 ], [ 7.22703, 44.67145, 0.0 ], [ 7.227, 44.67141, 0.0 ], [ 7.22698, 44.67136, 0.0 ], [ 7.22686, 44.6712, 0.0 ], [ 7.22673, 44.67098, 0.0 ], [ 7.22662, 44.67084, 0.0 ], [ 7.22656, 44.67063, 0.0 ], [ 7.22644, 44.67049, 0.0 ], [ 7.22637, 44.67037, 0.0 ], [ 7.22636, 44.67036, 0.0 ], [ 7.22629, 44.67015, 0.0 ], [ 7.22625, 44.66984, 0.0 ], [ 7.22627, 44.66926, 0.0 ], [ 7.22626, 44.66921, 0.0 ], [ 7.22626, 44.66914, 0.0 ], [ 7.22615, 44.66899, 0.0 ], [ 7.22571, 44.66876, 0.0 ], [ 7.22564, 44.66871, 0.0 ], [ 7.22556, 44.66861, 0.0 ], [ 7.22547, 44.66846, 0.0 ], [ 7.22543, 44.66837, 0.0 ], [ 7.22542, 44.66832, 0.0 ], [ 7.22555, 44.66802, 0.0 ], [ 7.2256, 44.66793, 0.0 ], [ 7.22563, 44.66781, 0.0 ], [ 7.22564, 44.66772, 0.0 ], [ 7.22548, 44.66734, 0.0 ], [ 7.22506, 44.66694, 0.0 ], [ 7.225, 44.66691, 0.0 ], [ 7.22412, 44.66632, 0.0 ], [ 7.22387, 44.6662, 0.0 ], [ 7.22373, 44.66611, 0.0 ], [ 7.22369, 44.66606, 0.0 ], [ 7.22369, 44.66605, 0.0 ], [ 7.22362, 44.66597, 0.0 ], [ 7.22357, 44.66593, 0.0 ], [ 7.22346, 44.66589, 0.0 ], [ 7.22341, 44.66589, 0.0 ], [ 7.22339, 44.66591, 0.0 ], [ 7.22339, 44.66593, 0.0 ], [ 7.2234, 44.66596, 0.0 ], [ 7.22352, 44.6661, 0.0 ], [ 7.22365, 44.6663, 0.0 ], [ 7.22396, 44.6666, 0.0 ], [ 7.22401, 44.66668, 0.0 ], [ 7.22407, 44.66699, 0.0 ], [ 7.22407, 44.66711, 0.0 ], [ 7.22397, 44.66725, 0.0 ], [ 7.22394, 44.66744, 0.0 ], [ 7.22393, 44.66745, 0.0 ], [ 7.22386, 44.66787, 0.0 ], [ 7.22369, 44.66802, 0.0 ], [ 7.22364, 44.66813, 0.0 ], [ 7.22363, 44.66825, 0.0 ], [ 7.22357, 44.66846, 0.0 ], [ 7.22357, 44.66848, 0.0 ], [ 7.22345, 44.66863, 0.0 ], [ 7.22315, 44.66891, 0.0 ], [ 7.2229, 44.66905, 0.0 ], [ 7.22276, 44.66915, 0.0 ], [ 7.22275, 44.66921, 0.0 ], [ 7.22276, 44.66929, 0.0 ], [ 7.2228, 44.66938, 0.0 ], [ 7.22284, 44.66944, 0.0 ], [ 7.22287, 44.66959, 0.0 ], [ 7.22283, 44.67013, 0.0 ], [ 7.22284, 44.67021, 0.0 ], [ 7.22284, 44.6704, 0.0 ], [ 7.2229, 44.67047, 0.0 ], [ 7.22291, 44.67053, 0.0 ], [ 7.22284, 44.67073, 0.0 ], [ 7.22281, 44.67099, 0.0 ], [ 7.22276, 44.67108, 0.0 ], [ 7.22276, 44.67109, 0.0 ], [ 7.22261, 44.67122, 0.0 ], [ 7.2223, 44.67144, 0.0 ], [ 7.22217, 44.67155, 0.0 ], [ 7.22206, 44.67199, 0.0 ], [ 7.222, 44.67214, 0.0 ], [ 7.22187, 44.67226, 0.0 ], [ 7.22157, 44.67243, 0.0 ], [ 7.22117, 44.67256, 0.0 ], [ 7.2208, 44.67274, 0.0 ], [ 7.22074, 44.67275, 0.0 ], [ 7.22067, 44.67278, 0.0 ], [ 7.2205, 44.67274, 0.0 ], [ 7.2204, 44.67266, 0.0 ], [ 7.22034, 44.67255, 0.0 ], [ 7.22034, 44.67242, 0.0 ], [ 7.22041, 44.67226, 0.0 ], [ 7.22053, 44.67209, 0.0 ], [ 7.2206, 44.67201, 0.0 ], [ 7.22068, 44.67194, 0.0 ], [ 7.22072, 44.67186, 0.0 ], [ 7.22072, 44.67169, 0.0 ], [ 7.22067, 44.67147, 0.0 ], [ 7.22062, 44.67134, 0.0 ], [ 7.2206, 44.67121, 0.0 ], [ 7.22067, 44.6711, 0.0 ], [ 7.22069, 44.67101, 0.0 ], [ 7.22066, 44.67089, 0.0 ], [ 7.22065, 44.67069, 0.0 ], [ 7.22058, 44.67059, 0.0 ], [ 7.22034, 44.67043, 0.0 ], [ 7.22026, 44.67039, 0.0 ], [ 7.22017, 44.6703, 0.0 ], [ 7.22, 44.67026, 0.0 ], [ 7.21984, 44.67014, 0.0 ], [ 7.21978, 44.66991, 0.0 ], [ 7.21977, 44.66979, 0.0 ], [ 7.21959, 44.66961, 0.0 ], [ 7.21956, 44.66956, 0.0 ], [ 7.21952, 44.66952, 0.0 ], [ 7.21952, 44.66945, 0.0 ], [ 7.2195, 44.66938, 0.0 ], [ 7.21931, 44.66926, 0.0 ], [ 7.21913, 44.66904, 0.0 ], [ 7.21902, 44.66895, 0.0 ], [ 7.21891, 44.66883, 0.0 ], [ 7.21885, 44.66874, 0.0 ], [ 7.21881, 44.66866, 0.0 ], [ 7.21879, 44.66859, 0.0 ], [ 7.2187, 44.66848, 0.0 ], [ 7.21853, 44.66836, 0.0 ], [ 7.21849, 44.66828, 0.0 ], [ 7.21849, 44.66821, 0.0 ], [ 7.2185, 44.66816, 0.0 ], [ 7.21852, 44.66812, 0.0 ], [ 7.21857, 44.66809, 0.0 ], [ 7.21858, 44.66805, 0.0 ], [ 7.21859, 44.66804, 0.0 ], [ 7.21851, 44.66801, 0.0 ], [ 7.21831, 44.66803, 0.0 ], [ 7.21822, 44.66809, 0.0 ], [ 7.21816, 44.6682, 0.0 ], [ 7.21817, 44.66839, 0.0 ], [ 7.21824, 44.66852, 0.0 ], [ 7.21819, 44.66855, 0.0 ], [ 7.21815, 44.66856, 0.0 ], [ 7.21808, 44.66852, 0.0 ], [ 7.21804, 44.66848, 0.0 ], [ 7.218, 44.66841, 0.0 ], [ 7.21795, 44.66835, 0.0 ], [ 7.21787, 44.66828, 0.0 ], [ 7.21783, 44.66812, 0.0 ], [ 7.21783, 44.66807, 0.0 ], [ 7.21787, 44.66801, 0.0 ], [ 7.21787, 44.66799, 0.0 ], [ 7.2178, 44.66793, 0.0 ], [ 7.21772, 44.66788, 0.0 ], [ 7.21772, 44.66787, 0.0 ], [ 7.21769, 44.6678, 0.0 ], [ 7.21776, 44.66765, 0.0 ], [ 7.21774, 44.66762, 0.0 ], [ 7.21769, 44.66761, 0.0 ], [ 7.21761, 44.66761, 0.0 ], [ 7.21751, 44.66765, 0.0 ], [ 7.21744, 44.6677, 0.0 ], [ 7.21739, 44.66778, 0.0 ], [ 7.21737, 44.66783, 0.0 ], [ 7.2174, 44.66789, 0.0 ], [ 7.2174, 44.6679, 0.0 ], [ 7.21748, 44.66803, 0.0 ], [ 7.21748, 44.6681, 0.0 ], [ 7.2175, 44.66824, 0.0 ], [ 7.217648904595503, 44.668514022477474, 0.0 ], [ 7.217788509841612, 44.668653631767938, 0.0 ], [ 7.217909060179094, 44.668837173807326, 0.0 ], [ 7.217892735849258, 44.668936437276102, 0.0 ], [ 7.217802843322193, 44.668908179985202, 0.0 ], [ 7.217686849608095, 44.668792634138462, 0.0 ], [ 7.217597552260393, 44.668672765978123, 0.0 ], [ 7.217398029134015, 44.668465875443246, 0.0 ], [ 7.217091158038758, 44.668222555856012, 0.0 ], [ 7.216924971482405, 44.668011446089203, 0.0 ], [ 7.216886643150824, 44.667745465398454, 0.0 ], [ 7.216560543353919, 44.667479728873538, 0.0 ], [ 7.216490841575379, 44.667514972149412, 0.0 ], [ 7.216522803186104, 44.66762762695619, 0.0 ], [ 7.216570058843474, 44.667746839274251, 0.0 ], [ 7.216510516919875, 44.667956003349374, 0.0 ], [ 7.216426700518919, 44.668090544382295, 0.0 ], [ 7.216443416685489, 44.668195062764077, 0.0 ], [ 7.216529853432847, 44.668408086808817, 0.0 ], [ 7.216539723153359, 44.668591480982904, 0.0 ], [ 7.216408634209642, 44.668679473549432, 0.0 ], [ 7.216250041038077, 44.668725965228816, 0.0 ], [ 7.216169872917914, 44.668885837535285, 0.0 ], [ 7.216060956871774, 44.668972596468748, 0.0 ], [ 7.215985309579822, 44.668912967224465, 0.0 ], [ 7.21601405646823, 44.668769667793569, 0.0 ], [ 7.216099715721943, 44.668575128976933, 0.0 ], [ 7.216084323971818, 44.668355316415052, 0.0 ], [ 7.215980011290085, 44.668292079959677, 0.0 ], [ 7.21580836986407, 44.668186720237713, 0.0 ], [ 7.215762068219166, 44.668108593559182, 0.0 ], [ 7.215757239643617, 44.667977406711103, 0.0 ], [ 7.215776425937277, 44.667784988593766, 0.0 ], [ 7.215717430960688, 44.667687707663347, 0.0 ], [ 7.215646727287845, 44.667683443380156, 0.0 ], [ 7.215586488253143, 44.667770962617553, 0.0 ], [ 7.215575731842441, 44.667905065208579, 0.0 ], [ 7.215524939396735, 44.668117524819749, 0.0 ], [ 7.215495125559703, 44.668295559880711, 0.0 ], [ 7.215413147891574, 44.668370102002228, 0.0 ], [ 7.215343492819244, 44.668403765646339, 0.0 ], [ 7.215300308159717, 44.668368338196153, 0.0 ], [ 7.215304459315822, 44.668305216876583, 0.0 ], [ 7.215361679715177, 44.668171840609332, 0.0 ], [ 7.215395741826306, 44.667927526460566, 0.0 ], [ 7.215411764248315, 44.66769398791017, 0.0 ], [ 7.215381435738692, 44.667600314185812, 0.0 ], [ 7.215318629800459, 44.667555102106796, 0.0 ], [ 7.215242241193376, 44.667591819749852, 0.0 ], [ 7.215162944412436, 44.667723271201432, 0.0 ], [ 7.215033419101491, 44.668012692696976, 0.0 ], [ 7.214950617195919, 44.668114075742956, 0.0 ], [ 7.214822660624723, 44.668172102017223, 0.0 ], [ 7.21480759646724, 44.668166074407523, 0.0 ], [ 7.214810242736566, 44.668095908883792, 0.0 ], [ 7.214811233831023, 44.667262568412134, 0.0 ], [ 7.214796005513521, 44.667117704066911, 0.0 ], [ 7.214741687092054, 44.667028394022729, 0.0 ], [ 7.214572973746251, 44.666883937853783, 0.0 ], [ 7.214371560901509, 44.666715099675336, 0.0 ], [ 7.214182493267443, 44.666592790799356, 0.0 ], [ 7.214066881826109, 44.666449164446561, 0.0 ], [ 7.213961982716721, 44.666213032414582, 0.0 ], [ 7.213832914459284, 44.665866999365555, 0.0 ], [ 7.21371881428952, 44.665674251438482, 0.0 ], [ 7.213512241259856, 44.665481460624065, 0.0 ], [ 7.21308387519411, 44.665271156981454, 0.0 ], [ 7.212876986188049, 44.665152779409794, 0.0 ], [ 7.212656349710962, 44.664969595869529, 0.0 ], [ 7.212437095230352, 44.664741501095698, 0.0 ], [ 7.212346409976165, 44.664619325299917, 0.0 ], [ 7.212066668691016, 44.663926916891761, 0.0 ], [ 7.211999214132502, 44.663753151451566, 0.0 ], [ 7.211841231480422, 44.663516186048149, 0.0 ], [ 7.211766583698515, 44.663384431971338, 0.0 ], [ 7.211720805579397, 44.663209601718627, 0.0 ], [ 7.211651639817912, 44.662899607755939, 0.0 ], [ 7.211567087988652, 44.662578139612307, 0.0 ], [ 7.21150855727164, 44.662306223882595, 0.0 ], [ 7.211492302194474, 44.662195042245635, 0.0 ], [ 7.211415647159317, 44.662064660608493, 0.0 ], [ 7.211368513746805, 44.66199792767749, 0.0 ], [ 7.211093652617796, 44.661787212886018, 0.0 ], [ 7.210915625498383, 44.661562569319081, 0.0 ], [ 7.210767701188293, 44.661318739267074, 0.0 ], [ 7.210637323364451, 44.661016210150279, 0.0 ], [ 7.210538841755075, 44.66070013939656, 0.0 ], [ 7.210514138595206, 44.6605438927146, 0.0 ], [ 7.210488698343828, 44.660283728132413, 0.0 ], [ 7.210395015215864, 44.65993964963274, 0.0 ], [ 7.210161243388899, 44.659608820552322, 0.0 ], [ 7.209987115918123, 44.65938564073614, 0.0 ], [ 7.209856962188959, 44.659076093451773, 0.0 ], [ 7.209809356034682, 44.658897021234097, 0.0 ], [ 7.209785455454, 44.658778698716269, 0.0 ], [ 7.209682445787267, 44.65860999082544, 0.0 ], [ 7.209569907313136, 44.658431304428603, 0.0 ], [ 7.209457562502578, 44.658054637187696, 0.0 ], [ 7.209320586015117, 44.657711282862273, 0.0 ], [ 7.209225573968717, 44.657410710774634, 0.0 ], [ 7.209231536985653, 44.657217032932543, 0.0 ], [ 7.2092840433867, 44.657045147197891, 0.0 ], [ 7.209306665935637, 44.656885430002639, 0.0 ], [ 7.209266669668778, 44.656842678478398, 0.0 ], [ 7.209115436705309, 44.656834689818716, 0.0 ], [ 7.20903118803589, 44.656951316084914, 0.0 ], [ 7.208962669500973, 44.657195965823931, 0.0 ], [ 7.208819386631311, 44.657440846750212, 0.0 ], [ 7.208490097381466, 44.657976274284593, 0.0 ], [ 7.207900066746348, 44.65892885043413, 0.0 ], [ 7.207677949498939, 44.659050332238564, 0.0 ], [ 7.207494274038705, 44.659137313649644, 0.0 ], [ 7.207189629670959, 44.65931928095381, 0.0 ], [ 7.20709629643052, 44.659475079006583, 0.0 ], [ 7.207100004257098, 44.65973771138087, 0.0 ], [ 7.20703477268464, 44.660194436564076, 0.0 ], [ 7.206855256102064, 44.660465424534998, 0.0 ], [ 7.206185618626741, 44.660744158305306, 0.0 ], [ 7.205804667330816, 44.660784508990169, 0.0 ], [ 7.205423195857183, 44.660841699900949, 0.0 ], [ 7.205219500464953, 44.660939596060651, 0.0 ], [ 7.205167264103004, 44.661038468803959, 0.0 ], [ 7.205204964507799, 44.661155605038047, 0.0 ], [ 7.205328860077521, 44.661348515575824, 0.0 ], [ 7.206157162267229, 44.66251713923954, 0.0 ], [ 7.206158988376484, 44.662585502703564, 0.0 ], [ 7.206049993072166, 44.662759775593244, 0.0 ], [ 7.205797295978136, 44.663085309419017, 0.0 ], [ 7.205519399900258, 44.663844793583721, 0.0 ], [ 7.205085788211496, 44.664549407888245, 0.0 ], [ 7.204810879424371, 44.665211583501339, 0.0 ], [ 7.204812124405521, 44.665511152629414, 0.0 ], [ 7.204813902331749, 44.665623511663171, 0.0 ], [ 7.204918953595925, 44.665864100942848, 0.0 ], [ 7.204954096336689, 44.665968559712695, 0.0 ], [ 7.204927775448487, 44.66614132295269, 0.0 ], [ 7.204782854825529, 44.666459187887746, 0.0 ], [ 7.204459342019125, 44.666698420654718, 0.0 ], [ 7.204052339248841, 44.666880173688696, 0.0 ], [ 7.203619979183688, 44.667033443534564, 0.0 ], [ 7.203347309726165, 44.667070341097961, 0.0 ], [ 7.203237370904856, 44.667147242747163, 0.0 ], [ 7.203219074397407, 44.667272391145303, 0.0 ], [ 7.203235473751202, 44.66737842762975, 0.0 ], [ 7.203317776797728, 44.667601576638276, 0.0 ], [ 7.203442643289913, 44.667805737412898, 0.0 ], [ 7.203518555345966, 44.667981045007004, 0.0 ], [ 7.203526694140511, 44.668142180883351, 0.0 ], [ 7.203470162684214, 44.668231156185406, 0.0 ], [ 7.203332004256167, 44.668372204205816, 0.0 ], [ 7.203042650942278, 44.668609162145373, 0.0 ], [ 7.202860760322873, 44.668764498745922, 0.0 ], [ 7.202708417722046, 44.668812649639925, 0.0 ], [ 7.202363557721606, 44.669062773419675, 0.0 ], [ 7.202276105205533, 44.669155491009171, 0.0 ], [ 7.202115876463205, 44.669196236221431, 0.0 ], [ 7.201957163941179, 44.669263354335953, 0.0 ], [ 7.201732835906134, 44.66951665711747, 0.0 ], [ 7.20166746305858, 44.66999657054734, 0.0 ], [ 7.201643627642684, 44.670289642500066, 0.0 ], [ 7.201649593655487, 44.670498866266065, 0.0 ], [ 7.20173852384899, 44.670865828072309, 0.0 ], [ 7.201823096500917, 44.67119777374382, 0.0 ], [ 7.201826600412983, 44.671283984013641, 0.0 ] ] } }
]
}
